"name","full_address","number_appts","lon","lat","geo_address"
"1419 Westwood Blvd.","Brown Rapid, Lake Sarahmouth, Iowa",2,-96.3269274,42.3064471,"brown's lake-bigelow park, 722 bigelow park rd, salix, ia 51052, usa"
"14nov2","Circuito Medicos 13, Ciudad Satelite, MEX",0,-99.2339815,19.5059461,"cto. medicos 13, cd. satélite, 53100 naucalpan de juárez, méx., mexico"
"1 Nail Spa","2731 NC HWY 55, Cary, NC",10,-78.8729196,35.7849462,"2731 nc-55, cary, nc 27519, usa"
"2 Dogs and a Biscuit","3 dog way, dogville, SC",3,-81.1637245,33.836081,"south carolina, usa"
"360 Merchant Group","3214 Hatch Blvd, Sheffield, AL",5,-87.683172,34.7706167,"3214 hatch blvd, sheffield, al 35660, usa"
"369 Industries","15131 Triton Lane, Huntington Beach, CA",0,-118.0403359,33.7429715,"15131 triton ln, huntington beach, ca 92649, usa"
"38Rain","435 Merchant Walk Square, Charlottesville, VA",1,-78.4983687,38.0110704,"435 merchant walk square, charlottesville, va 22902, usa"
"5 Speed Collision Center","18703 West Little York, Katy, TX",0,-95.696254,29.864247,"18703 w little york rd, katy, tx 77449, usa"
"808 Fades","81 s Lanikai Place, Haiku, HI",0,-156.2775618,20.8961756,"81 s lanikai pl, haiku, hi 96708, usa"
"808 Smart Car Rentals","444 Niu St, Honolulu, HI",2,-157.8327139,21.2869649,"444 niu st, honolulu, hi 96815, usa"
"A1M Arena","920 E State Street, Suite D, American Fork, UT",0,-111.7725518,40.3702661,"920 e state st suite d, american fork, ut 84003, usa"
"A2D Wireless Solutions","8606 Loch Raven Boulevard, Towson, MD",2,-76.5636451,39.3952833,"8606 loch raven blvd, towson, md 21286, usa"
"Abba Smoke Citi","903 N Euclid St, Anaheim, CA",0,-117.9419969,33.8442217,"903 n euclid st, anaheim, ca 92801, usa"
"A Better Life Psychotherapy, PLLC","8010 E. Morgan Trail, Scottsdale, AZ",1,-111.9081406,33.576001,"morgan trail executive plaza, 8010 e morgan trail, scottsdale, az 85258, usa"
"Above All Smog","2045 San Ramon Valley Blvd, San Ramon, CA",978,-121.9808769,37.7833986,"2045 san ramon valley blvd, san ramon, ca 94583, usa"
"Above the Rest Barber and Beauty LLC","818 E. Louetta Rd. Ste C, Spring, TX",2267,-95.4218155,30.0720684,"818 e louetta rd ste c, spring, tx 77373, usa"
"Access Motorsports","1557 W. Hudson Road, Rogers, AR",0,-94.1402198,36.355998,"1557 w hudson rd, rogers, ar 72756, usa"
"Accupoint Labs","3750 Moffett Rd, Mobile, AL",0,-88.1268287,30.710296,"3750 moffett rd, mobile, al 36618, usa"
"Activmeals","7757 N First, Fresno, CA",0,-119.7769673,36.8512785,"7757 n first st, fresno, ca 93720, usa"
"A Cut Above Pet Salon","3836 Emerald Ave Ste G, La Verne, CA",0,-117.7676215,34.1152738,"3836 emerald ave ste g, la verne, ca 91750, usa"
"Addictive Tattoo","4018 Morningside Ave, Sioux City, IA",0,-96.3550572,42.4704954,"4018 morningside ave, sioux city, ia 51106, usa"
"Adela's Lash Studio","6626 W Loop 1604 N Ste 45, San Antonio, TX",47,-98.6998807,29.5007088,"6626 w loop 1604 n #45, san antonio, tx 78250, usa"
"adswertasf","5000 west madison, chicago, IL",0,-87.7506982,41.8806805,"5000 w madison st, chicago, il 60644, usa"
"Advantage RV Sales & Service Inc","5502 US 264 W, Washington, NC",0,-77.1264467,35.6024821,"5502 us-264, washington, nc 27889, usa"
"Affinity UBS","444 E 81st St, New York, NY",0,-73.9501949,40.772756,"444 e 81st st, new york, ny 10028, usa"
"Affordable Pet Grooming","2641 1/2 south 6th street, Springfield, IL",2,-89.6486993,39.7670253,"2641 1/2 s 6th st, springfield, il 62703, usa"
"A Head of Style","612 E Oak St, Fairbury, IL",84,-88.5040703,40.7440605,"612 e oak st, fairbury, il 61739, usa"
"A Head of Style - Jill","612 E Oak St, Fairbury, IL",0,-88.5040703,40.7440605,"612 e oak st, fairbury, il 61739, usa"
"A Head of Style - Marybeth","612 E Oak St, Fairbury, IL",0,-88.5040703,40.7440605,"612 e oak st, fairbury, il 61739, usa"
"A Head of Style- Natasha","612 E Oak St, Fairbury, IL",0,-88.5040703,40.7440605,"612 e oak st, fairbury, il 61739, usa"
"A Head of Style - Robin","612 E Oak St, Fairbury, IL",0,-88.5040703,40.7440605,"612 e oak st, fairbury, il 61739, usa"
"akjsldhajlks","500 west madison, chicago, IL",0,-87.6403882,41.8823062,"citigroup center, 500 w madison st, chicago, il 60661, usa"
"Albany Paintball Experience","3167 Route 20, Nassau, NY",1,-73.5969313,42.5072724,"3167 us-20, nassau, ny 12123, usa"
"Alec's Sports Bar and Grill","129 W Walnut St, Jesup, GA",0,-81.8824377,31.6064672,"129 w walnut st, jesup, ga 31545, usa"
"Alexander York The Salon & Barbershop","628 N Monroe, Spokane, WA",9,-117.4262965,47.6636281,"628 n monroe st, spokane, wa 99201, usa"
"Alex Lifeson","2112 Lakeside Park, Sterling, VA",0,-77.4291298,39.0066993,"sterling, va, usa"
"Alfredo's Auto Service","801 N Kenyon Rd, Edinburg, TX",8,-98.1213103,26.3028115,"801 n kenyon rd, edinburg, tx 78542, usa"
"All About The Look","1455 Mineral Spring Avenue, North Providence, RI",1,-71.4432156,41.8660461,"1455 mineral spring ave, north providence, ri 02904, usa"
"All Autos Smog 2244","2244 S. Santa Fe # C1, Vista, CA",0,NA,NA,""
"Allegretto Music Academy","9627 Sims STE D, El Paso, TX",0,-106.356819,31.7633236,"9627 sims dr ste d, el paso, tx 79925, usa"
"All Four Paws","340 W Maple St Ste B, New Lenox, IL",0,-87.9753021,41.5157934,"340 w maple st ste b, new lenox, il 60451, usa"
"ALL IN 1 SUCCESS LLC","7408 WINDSOR MILL RD, WINDSOR MILL, MD",1,-76.7613027,39.3412424,"7408 windsor mill rd, windsor mill, md 21244, usa"
"All Star nails","907 west marketview, Champaign, IL",1,-88.2608328,40.1377416,"907 w marketview dr, champaign, il 61822, usa"
"All Styling Studio","32 Broadway, Suite 2, Denville, NJ",8,-74.4770396,40.8923419,"32 broadway #2, denville, nj 07834, usa"
"All The Rage Tattoo","208 Main St West, Hartselle, AL",0,-86.935007,34.443184,"208 main st w, hartselle, al 35640, usa"
"A.L. Oliveira Auto Body","11 Hargrove Grade, Palm Coast, FL",0,-81.2709409,29.554363,"11 hargrove grde, palm coast, fl 32137, usa"
"Alpha Nails Bar","301 Grove St #2, Worcester, MA",0,0,0,""
"Altamaha k-9","99 Flat Woods Rd, screven, GA",0,-82.0274729,31.4860757,"99 flatwoods rd, screven, ga 31560, usa"
"Alter Egos Beauty Bar","1619 Leon Rd, Jacksonville, FL",55,-81.5378118,30.3221564,"1619 leon rd, jacksonville, fl 32246, usa"
"Always Tan & Boutique","1509 South Adams St Ste D, Fulton, MS",0,-88.4034987,34.2497836,"1509 s adams st ste d, fulton, ms 38843, usa"
"AM3 Auto LLC","7234 Windsor Mill Road, Windsor Mill, MD",0,-76.7553167,39.3386182,"7234 windsor mill rd, windsor mill, md 21244, usa"
"Amanda  Horton","126 W Wise St, Bowie, TX",0,-97.8497367,33.5592401,"126 w wise st, bowie, tx 76230, usa"
"Amanda's Top Notch Grooming","600 N. 2nd Street, Patterson, CA",0,-121.1341428,37.4789579,"600 n 2nd st, patterson, ca 95363, usa"
"Amazing Grace Massage","225A  South Cedar St., Summerville, SC",2,-80.1779597,33.0189433,"225a s cedar st, summerville, sc 29483, usa"
"Amen Windows","3475 Old Hwy 105 W., Conroe, TX",2,-95.5612209,30.336996,"3475 old hwy 105 w, conroe, tx 77304, usa"
"A Moving Company","3693 East Florence Drive, Merdian, ID",12,-116.3483689,43.616423,"3693 e florence dr, meridian, id 83642, usa"
"A&M's Pawtential Obedience, LLC","612 1/2 Cypress St, Throop, PA",0,-75.612647,41.447637,"612 1/2 cypress st, throop, pa 18512, usa"
"Anais Nail Salon","301 Attara Ave, Coral Gables, FL",1,-80.2614181,25.7332606,"301 altara ave, coral gables, fl 33146, usa"
"Anchored Aesthetics Inc","2809 W 15th St. Suite 106, Panama City, FL",0,-85.699618,30.1752165,"2809 15th st #106, panama city, fl 32401, usa"
"Anderson Aesthetics","1896 Gen George Patton Drive Suite 600, Franklin, TN",118,-86.8316262,35.956339,"1896 general george patton dr #600, franklin, tn 37067, usa"
"Andrew Hightower Massage","931 S. Front Street, Columbus, OH",0,-82.9988972,39.9428552,"931 s front st, columbus, oh 43206, usa"
"ANDY'S CUSTOM UPHOLSTERY","1320 GRAND AVE, SAN MARCOS, CA",0,-117.1923695,33.144045,"1320 grand ave, san marcos, ca 92078, usa"
"Anew Aesthetics","1896 Gen George Patton Drive, Franklin, TN",213,-86.8316262,35.956339,"1896 general george patton dr, franklin, tn 37067, usa"
"A New Creation Salon","2295 Townelake Pkwy Ste 156, Woodstock, GA",2479,-84.5547854,34.1123548,"2295 towne lake pkwy #156, woodstock, ga 30189, usa"
"A New Horizon Community Services","108 N Jackson Rd Apt 34, Edinburg, TX",6,-98.1853819,26.3057423,"108 n jackson rd #34, edinburg, tx 78541, usa"
"A New You Aesthetic","5757 Woodway Drive G100 STE 10, Houston, TX",0,-95.4817984,29.7605912,"5757 woodway dr suite 200, houston, tx 77057, usa"
"Angela's Hair Salon","9728 B Midothian Turnpike, N Chesterfield, VA",0,-77.5738302,37.503562,"9728 b midlothian turnpike, bon air, va 23235, usa"
"Anthony Fredrick Salon","200 Boston Providence HWY, Dedham, MA",50,-71.1804964,42.2210095,"200 boston providence hwy, westwood, ma 02090, usa"
"Apple Test Account [DO NOT CHANGE]","500 West Madison, Chicago, IL",0,-87.6403882,41.8823062,"citigroup center, 500 w madison st, chicago, il 60661, usa"
"Appliance Solutions LLC","16345 Highway 65 NE, Ham Lake, MN",0,-93.2344777,45.1927703,"16345 hwy 65 ne, blaine, mn 55434, usa"
"April's Healing Hands","15373 Hall Rd, Macomb, MI",42,-82.9714097,42.6297077,"15373 hall rd, macomb, mi 48044, usa"
"Arlington Suites","521 Griswold Rd, Elyria, OH",0,-82.1132909,41.4005068,"521 griswold rd, elyria, oh 44035, usa"
"Artistic Automotive Detailing","9601 Wilshire Blvd P1 Floor, Beverly Hills, CA",0,-118.403733,34.0678186,"9601 wilshire blvd p1 floor, beverly hills, ca 90210, usa"
"ART OF EYEBROW THREADING","16634 N Pennsylvania Ave, Edmond, OK",6,-97.5483947,35.6412955,"16634 n pennsylvania ave, edmond, ok 73012, usa"
"Art to Zen","125 S. Jefferson Ave., Cookeville, TN",1,-85.5005531,36.1606882,"125 s jefferson ave, cookeville, tn 38501, usa"
"Ashley Clement","15043 Egret Hammock Drive, Winter Garden, FL",17,-81.6098865,28.5329695,"15043 egret hammock dr, oakland, fl 34787, usa"
"Atalie Slone LMT","121 S Spruce street, Burlington, WA",0,-122.3310549,48.4748953,"121 s spruce st, burlington, wa 98233, usa"
"Aticus","131 SE 1st Ave, Hallandale, FL",0,-80.1473564,25.9835886,"131 se 1st ave, hallandale beach, fl 33009, usa"
"A To Z Driving School","719 W Mount Houston Rd, Houston, TX",14,-95.413458,29.8977919,"719 w mt houston rd, houston, tx 77038, usa"
"Automotive General Maintenance","3132 Winchester Ave, Ashland, KY",6,-82.6210515,38.4678329,"3132 winchester ave, ashland, ky 41101, usa"
"Auto Service Solutions","9 Rogers St, Manchester, NH",1,-71.4488136,42.978446,"9 rogers st, manchester, nh 03103, usa"
"Auto Shades, Inc","6302 Cleveland Blvd, Caldwell, ID",5,-116.6309513,43.623735,"6302 cleveland blvd, caldwell, id 83607, usa"
"Auto Stylz","1026 Findlay St, Portsmouth, OH",22,-82.992363,38.7389627,"1026 findlay st, portsmouth, oh 45662, usa"
"Autumn Menard","209 E Ann Street, Sault Sainte Marie, MI",23,-84.3499342,46.492618,"209 e ann st, sault ste. marie, mi 49783, usa"
"Avid Salon","1503 N 8th St, Sheboygan, WI",2,-87.7127787,43.7608723,"1503 n 8th st, sheboygan, wi 53081, usa"
"Avid Salon Kari","1503 N 8th St, Sheboygan, WI",0,-87.7127787,43.7608723,"1503 n 8th st, sheboygan, wi 53081, usa"
"Avid Salon Shannon","1503 N 8th St, Sheboygan, WI",1,-87.7127787,43.7608723,"1503 n 8th st, sheboygan, wi 53081, usa"
"Avid Salon Somer","1503 N 8th St, Sheboygan, WI",0,-87.7127787,43.7608723,"1503 n 8th st, sheboygan, wi 53081, usa"
"AZ AC DC Mobile Automotive  Repair","3015 E Main Street # 114, Mesa, AZ",0,0,0,""
"Aztec Empire Barbershop - Ben McKeon","231 N Main St, Spanish Fork, UT",0,-111.6550168,40.1129563,"231 n main st, spanish fork, ut 84660, usa"
"Aztec Empire Barbershop - Doreau","231 N Main Street, spanish fork, UT",0,-111.6550168,40.1129563,"231 n main st, spanish fork, ut 84660, usa"
"Aztec Empire Barbershop - Jonathan Chiguil","308 N 600 e, Provo, UT",0,-111.64793,40.2376898,"308 600 e, provo, ut 84606, usa"
"Bannon Tile Distributors Inc.","5700 Post Rd, East Greenwich, RI",0,-71.4678376,41.6407923,"5700 post rd, east greenwich, ri 02818, usa"
"Bark Place 81st","450 E 81st St, New York, NY",0,-73.9499974,40.7727798,"450 e 81st st, new york, ny 10028, usa"
"Bark Place First Ave","1371 1st Ave, New York, NY",4,-73.9554377,40.7689923,"1371 1st avenue, new york, ny 10021, usa"
"Barks N Bubbles LLC","1558 North Park St., Carrollton, GA",0,-85.0865339,33.6099585,"1558 n park st, carrollton, ga 30117, usa"
"Basia Hair Salon","249 US-202, Suite #2, Somers, NY",0,0,0,""
"Baton Rouge’s Live Music","10244 Florida Blvd, Baton Rouge, LA",0,-91.0695762,30.4559107,"10244 florida blvd, baton rouge, la 70815, usa"
"Bay Area Hairstyles","1501 Carmelita, Burlingame, CA",9,-122.364108,37.5827228,"1501 carmelita ave, burlingame, ca 94010, usa"
"Bay Area POS","145 Corte Madera Town Center, Corte Madera, CA",0,-122.5177814,37.9273917,"145 corte madera town center, corte madera, ca 94925, usa"
"Beach Avenue Hair","503 south orem blvd, Orem, UT",0,-111.6935288,40.2880816,"503 s orem blvd, orem, ut 84058, usa"
"Bear Paws Massage","15 W Marshall St, Rice Lake, WI",3,-91.7346491,45.5045907,"15 w marshall st, rice lake, wi 54868, usa"
"Beautiful Forever Salon","158-25 Horace Harding Expwy, Fresh Meadows, NY",0,-73.8095746,40.7390036,"158-25 horace harding expy, fresh meadows, ny 11365, usa"
"Beautiful Gate Chiropractic","15814 E. Us Hwy 24, Independence, MO",0,-94.3881418,39.1149925,"15814 e us hwy 24, independence, mo 64050, usa"
"Beauty Bar","121  16th  Street, Ashland, KY",3,-82.6384688,38.4803216,"121 16th st, ashland, ky 41101, usa"
"Beauty Brows","35 Featherbed Ln, Winchester, VA",6,-78.1711615,39.1648712,"35 featherbed ln, winchester, va 22601, usa"
"Beauty by Becca","16953 hwy 72, rogersville, AL",0,-86.7861148,34.7476819,"16953 hwy 72 w, madison, al 35758, usa"
"BeautyByLonda","10246 Wellhouse Ct, Jacksonville, FL",0,-81.8358203,30.3289003,"10246 wellhouse ct, jacksonville, fl 32220, usa"
"Beauty Lounge","266 Putnam Pike Ste 2, Smithfield, RI",0,-71.5077423,41.8682455,"266 putnam pike #2, smithfield, ri 02917, usa"
"Beauty Mark","1880 S Pierce St #12, Lakewood, CO",236,0,0,""
"Beauty & More","21170 beach blvd, huntington beach, CA",1,-117.9869113,33.656709,"21170 beach blvd, huntington beach, ca 92648, usa"
"Beauty Sensai","4230A Rosewood Dr, Pleasanton, CA",2,-121.8773972,37.698636,"4230 rosewood dr, pleasanton, ca 94588, usa"
"Be Barbie Aesthetics, Inc.","1015 Chestnut Ave Ste, B3, Carlsbad, CA",1,-117.3388585,33.1580002,"1015 chestnut ave ste b3, carlsbad, ca 92008, usa"
"Bee Clean 360","11881 Ashbrook Cir N, Jacksonville, FL",5,-81.5038553,30.3619939,"11881 ashbrook cir n, jacksonville, fl 32225, usa"
"Being Dapper","1645 E Thomas Rd unit 2094, Phoenix, AZ",2,-112.0452617,33.4787679,"1645 e thomas rd #2094, phoenix, az 85016, usa"
"Be La Vie","10000 Main Street, Penngrove, CA",58,-122.6662535,38.2975296,"10000 main st, penngrove, ca 94951, usa"
"Bella Luce LTD","2125 E Hennepin, Minneapolis, MN",0,-93.2217399,44.9919672,"2125 e hennepin ave, minneapolis, mn 55413, usa"
"Bella Nails Spa","6165 Valley Spring Pky Ste G, Riverside, CA",12,-117.2884388,33.9408304,"6165 valley springs pkwy ste g, riverside, ca 92507, usa"
"Bella Romance Salon","4231 Independence Ave, Kansas City, MO",4,-94.5319205,39.1054669,"4231 independence ave, kansas city, mo 64124, usa"
"Bella Salon","933 Anderson Ste L, Green Bay, WI",25,-88.0704555,44.485001,"933 anderson dr ste l, green bay, wi 54304, usa"
"Bella View Window & Doors","310 Pine Ave Ste C, Goleta, CA",4,-119.8263458,34.4345222,"310 pine ave ste c, goleta, ca 93117, usa"
"BELLISSIMO SALON  SUITES LLC","1120 MISSISSIPPI AVE, LYNN HAVEN, FL",6,-85.6375053,30.2406713,"1120 mississippi ave, lynn haven, fl 32444, usa"
"Bendover Wax Studio","376 SW Bluff Drive Suite 9, Bend, OR",1,-121.3125876,44.0467722,"376 sw bluff dr #9, bend, or 97702, usa"
"Be Pampered Foot Spa","4130 Salisbury Road, Jacksonville, FL",0,-81.5960546,30.2539472,"4130 salisbury rd, jacksonville, fl 32216, usa"
"Be Salon","4101 Rosswell Road Ste 301, Marietta, GA",0,-84.4334859,33.9811141,"4101 roswell rd #301, marietta, ga 30062, usa"
"Best Brake & More Inc","2820 NE Hudson Rd, Rogers, AR",13,-94.1121631,36.3595125,"2820 ne hudson rd, rogers, ar 72756, usa"
"Best Face Forward","6053 Hudson Rd #156, Woodbury, MN",0,0,0,""
"Beth's Hair Salon & Spa","123 Main St, Fayetteville, NC",2,-78.8794162,35.0527329,"123 hay st, fayetteville, nc 28301, usa"
"Big Band Catering","1624 Diana Dr, Round Rock, TX",2,-97.6344053,30.4866727,"1624 diana dr, round rock, tx 78664, usa"
"Biosol Beauty Salon","296 Broadway, Somerville, MA",7,-71.092578,42.3919208,"296 broadway, somerville, ma 02145, usa"
"Biscayne Nail & Beauty Bar","10990 Biscayne Blvd Unit 14, Miami, FL",119,-80.1693325,25.8764081,"10990 biscayne blvd #14, miami, fl 33161, usa"
"Biscayne Nail Spot","5050 Biscayne Blvd, Miami, FL",0,-80.1876373,25.8222468,"5050 biscayne blvd, miami, fl 33137, usa"
"Bless African Hair Braiding Shop","7711 N Oak Trafficway, Kansas City, MO",6,-94.5754872,39.2341464,"7711 n oak trafficway, kansas city, mo 64118, usa"
"Blown Away Salon LLC","223 Saint George Ave, Roselle, NJ",0,-74.2907056,40.594669,"223 st georges ave, rahway, nj 07065, usa"
"Blue Lion MG","1265 Sergeant Jon Stiles Dr, Highland Ranch, CO",0,-105.0057021,39.5499065,"1265 sergeant jon stiles dr, highlands ranch, co 80129, usa"
"Blue Stone Therapy","10769 N Frank Lloyd Wright Blvd suite A-110, Scottsdale, AZ",1,-111.8333676,33.5840095,"10769 n frank lloyd wright blvd ste 110, scottsdale, az 85259, usa"
"Bob's Muffler","301 W. Oldtown Street, Galax, VA",0,-80.9267771,36.6600554,"301 w oldtown st, galax, va 24333, usa"
"Body Care Foot Spa","16375 Monterey St. #K, Morgan Hill, CA",0,0,0,""
"Body Kinetics Wellness","5940 S Rainbow Blvd, Las Vegas, NV",2,-115.2413069,36.0811365,"5940 s rainbow blvd, las vegas, nv 89118, usa"
"Bodyman's Autobody & Painting LLC","626 W. 25th Street, Norfolk, VA",7,-76.2933231,36.8733372,"626 w 25th st, norfolk, va 23517, usa"
"Body Muse","9501 Arlington Expy Ste 160, Jacksonville, FL",197,-81.5510726,30.3234161,"9501 arlington expy #160, jacksonville, fl 32225, usa"
"Bodyworks Massage Academy","545 Ashmun St, Sault Sainte Marie, MI",1,-84.348181,46.4962571,"545 ashmun st, sault ste. marie, mi 49783, usa"
"BON BON SALON","17 W Forest St, Brigham City, UT",3,-112.016373,41.510207,"17 w forest st, brigham city, ut 84302, usa"
"BON BON SALON & SPA","5555 E BELL RD #8, SCOTTSDALE, AZ",7,0,0,""
"Boss Babe Publications","P.O. Box 697, Ackerman, MS",7,-89.1728434,33.3101243,"ackerman, ms 39735, usa"
"BoTANical Glow By Virginia","6620 SouthPoint Drive South, Jacksonville, FL",1,-81.5916005,30.251871,"6620 southpoint dr s, jacksonville, fl 32256, usa"
"Braids By Design","10033 Atlantic Blvd, Jacksonville, FL",0,-81.5393514,30.3236629,"10033 atlantic blvd, jacksonville, fl 32225, usa"
"Brain Masters Life Coaching","414 E. Santa Gertrudis, Kingsville, TX",1,-97.864295,27.5229693,"414 e santa gertrudis st, kingsville, tx 78363, usa"
"Brazilian Waxing by Sisters","4447 N State Rd 7, Lauderdale Lakes, FL",1,-80.2039039,26.1799964,"4447 n state rd 7, lauderdale lakes, fl 33319, usa"
"Breathe of St. George","310 E. Tabernacle, St. George, UT",5,-113.5766399,37.1079027,"310 e tabernacle st, st. george, ut 84770, usa"
"Bridal Connection","923 N Loop 1604 E #108, San Antonio, TX",0,0,0,""
"Bronzz Beauty Studio","100 N Madison Ave Ste B, Greenwood, IN",0,-86.1108841,39.6164661,"100 n madison ave ste b, greenwood, in 46142, usa"
"Bronzz Beauty Studio","100 N. Madison Ave Suite B, Greenwood, IN",0,-86.1108841,39.6164661,"100 n madison ave suite b, greenwood, in 46142, usa"
"Brow Xpressions & Beauty Spa","4900 Ivey Rd NW Ste 1201, Acworth, GA",0,-84.6943137,34.0385015,"4900 ivey rd #1201, acworth, ga 30101, usa"
"Bryce's Body Shop","2480 W 7000 N, Honeyville, UT",0,-112.075617,41.6369776,"2480 w 7000 n, honeyville, ut 84314, usa"
"Bug Avengers","1418 Clemens Pl, Reynoldsburg, OH",0,-82.8133549,39.9531766,"1418 clemens pl, reynoldsburg, oh 43068, usa"
"Cake Lady Studios and Events","5601 W McDowell Rd, Phoenix, AZ",0,-112.1811946,33.4648132,"5601 w mcdowell rd, phoenix, az 85035, usa"
"California Auto Works","2666 Middlefield Rd, Redwood City, CA",0,-122.2124926,37.4769839,"2666 middlefield rd, redwood city, ca 94063, usa"
"Calvin Allen Brown","6625 Dorchester Rd  Lot 202, North Charleston, SC",0,-80.0687538,32.8796778,"6625 dorchester rd lot 202, north charleston, sc 29418, usa"
"Canine New England Inc","21 Industrial Rd, Walpole, MA",479,-71.2695098,42.1180723,"21 industrial rd, south walpole, ma 02071, usa"
"Capelli Salon","3370 S Hualapai Way, Las Vegas, NV",0,-115.3144557,36.128386,"3370 s hualapai way, las vegas, nv 89117, usa"
"Capt Keith's Classic Cleaners","2200 SE J St Ste 2, Bentonville, AR",0,-94.1977428,36.3480951,"2200 se j st #2, bentonville, ar 72712, usa"
"Cara Mia Nails","3140 South Wadsworth, Lakewood, CO",2054,-105.081041,39.6617283,"3140 s wadsworth blvd, lakewood, co 80227, usa"
"Carlo Michelutti Valo Enterprises LLC -","34 East Oak St, Chicago, IL",1,-87.6270062,41.9009865,"34 e oak st, chicago, il 60611, usa"
"Castle Nails & Spa","2144 Main street Suit 5, Tewksbury, MA",1,-71.1976251,42.5850435,"2144 main st #5, tewksbury, ma 01876, usa"
"Catch the Fade","6904 Geyer Springs Rd Ste 4, Little Rock, AR",0,-92.3439555,34.687178,"6904 geyer springs rd #4, little rock, ar 72209, usa"
"CC and Company Salon and Spa","160 Manor Ave, Concord, NC",3,-80.5659355,35.3863213,"160 manor ave sw, concord, nc 28025, usa"
"CCR Shop","2001 N Frontage Rd, Beeville, TX",0,-97.7401213,28.4267902,"2001 n frontage rd, beeville, tx 78102, usa"
"Cecelia Park Barbers","906 Morningside Ave, Sioux City, IA",31,-96.366539,42.4826717,"906 morningside ave, sioux city, ia 51106, usa"
"Ceja's Detailing","598 Garden Hwy Ste 23, Yuba City, CA",0,-121.6158642,39.1194994,"598 garden hwy ste 23, yuba city, ca 95991, usa"
"Celebrations Hair Design","10 Old Hojack Lane Suite 105, Hilton, NY",0,-77.794061,43.2902658,"10 old hojack ln #105, hilton, ny 14468, usa"
"Celebrity Lashes","910 N Western Ave, Chicago, IL",0,-87.6871776,41.8979303,"910 n western ave, chicago, il 60622, usa"
"Central Coast Red Coral Spa","1148 E Grand Avenue, Arroyo Grande, CA",5,-120.5977175,35.1201823,"1148 e grand ave, arroyo grande, ca 93420, usa"
"Central Texas Beauty College","1400 N Mays St, Round Rock, TX",5,-97.6848772,30.5208041,"1400 n mays st, round rock, tx 78664, usa"
"Central Texas Beauty College","2010 S 57th St, Temple, TX",4,-97.3793022,31.0849189,"2010 s 57th st, temple, tx 76504, usa"
"Chameleon 2 Salon","116 North Central Ave, Eureka, MO",0,-90.627615,38.504072,"116 n central ave, eureka, mo 63025, usa"
"Champions Health Club","8850 Santa Rosa Rd, Atascadero, CA",7,-120.6524353,35.465886,"8850 santa rosa rd, atascadero, ca 93422, usa"
"Champs Club","2110 Sandy Lane, laurel, MS",3,-89.1519654,31.716558,"2110 sandy ln, laurel, ms 39443, usa"
"Chaotic Nailz","5014 San Juan Ave, Jacksonville, FL",0,-81.730928,30.2818934,"5014 san juan ave, jacksonville, fl 32210, usa"
"Charley's General Construction","24450 Old Hwy 112, Cameron, OK",0,-94.5204237,35.1675528,"24450 old hwy 112, cameron, ok 74932, usa"
"Chattering Squirrel Coffee Cafe","7711 Park Rd w, Siren, WI",0,-92.3821323,45.793379,"7711 park rd w, siren, wi 54872, usa"
"Chestnut Hardware","212 Chestnut St, Roselle Park, NJ",0,-74.2645391,40.6631701,"212 chestnut st, roselle park, nj 07204, usa"
"Chicago","549 randolph street, chicago, IL",5,-87.6416895,41.8842493,"549 w randolph st, chicago, il 60661, usa"
"Chiropractic Healing Center","8437 State Ave Suite A, Kansas City, KS",0,-94.7758952,39.115814,"8437 state ave suite a, kansas city, ks 66112, usa"
"Chop Shop Barbershop","2611 Post Rd, Plover, WI",346,-89.5441392,44.4574891,"2611 post rd, plover, wi 54467, usa"
"Christina & Company Hair Salon","104 Jason St, Victoria, TX",0,-96.9995766,28.834946,"104 jason st, victoria, tx 77901, usa"
"Chroma Hair Salon","4111 Stephens St., San Diego, CA",2,-117.1784045,32.752048,"4111 stephens st, san diego, ca 92103, usa"
"CJ's Elevated Photography LLC","2392 W New Orleans St, Broken Arrow, OK",0,-95.8177596,36.0181719,"2392 w new orleans st, broken arrow, ok 74011, usa"
"CLEAN EARTH SOAP","1223 N Nevada Ave, COLORADO SPRINGS, CO",0,-104.8204048,38.851458,"1223 n nevada ave, colorado springs, co 80903, usa"
"Clear the Clutter Professional Organizers","13241 Boccala Ln, Estero, FL",0,-81.7330741,26.4245745,"13241 boccala ln, estero, fl 33928, usa"
"Club Fun","5940 King Hill Ave, St Joseph, MO",2,-94.86257,39.714356,"5940 king hill ave, st joseph, mo 64504, usa"
"Club Vive Mas","6225 Tyler St. Ste. 102, Riverside, CA",0,-117.477322,33.9452105,"6225 tyler st #102, riverside, ca 92503, usa"
"Coco Nail Salon & Spa","1668 E State St, Hermintage, PA",1,-80.4792757,41.2328438,"1668 e state st, hermitage, pa 16148, usa"
"Coco's African Hair Braiding","7416 Windsor Mill Road, Baltimore, MD",0,-76.7616604,39.3415374,"7416 windsor mill rd, windsor mill, md 21244, usa"
"coffee shop","5000 west madison, chicago, IL",10,-87.7506982,41.8806805,"5000 w madison st, chicago, il 60644, usa"
"Collins Funeral Home","92 East Ave, Norwalk, CT",0,-73.4083714,41.1170034,"92 east ave, norwalk, ct 06851, usa"
"Complexions Skin Care Med Spa","684 Excelsior Blvd Ste 110, Excelsior, MN",0,-93.5611643,44.9021167,"684 excelsior blvd #110, excelsior, mn 55331, usa"
"Composure Health Spa","1 West 41st St Ste 5, Sand Spinas, OK",55,-96.119203,36.1052652,"1 w 41st st #5, sand springs, ok 74063, usa"
"Contemporary Hair Design","430 Diablo Rd, Danville, CA",2,-121.9929415,37.8238054,"430 diablo rd, danville, ca 94526, usa"
"ContestaRockHair","5010 NE 2ND AVE STE 204, Miami, FL",87,-80.1919308,25.8215087,"5010 ne 2nd ave #204, miami, fl 33137, usa"
"Convicted Ink Tattoos","693 N State st, orem, UT",0,-111.7009198,40.309727,"693 n state st, orem, ut 84057, usa"
"Corner Cuts","105 D S Jefferson, Millstdadt, IL",14,-90.0918736,38.4603595,"105 s jefferson st, millstadt, il 62260, usa"
"Cornerstone Cars","920 Justison Street, Wilmington, DE",4,-75.5619547,39.7298939,"920 justison st, wilmington, de 19801, usa"
"Courteous Canine, LLC","40 N Roosevelt Road, Black River Falls, WI",0,-90.8443054,44.2956476,"40 n roosevelt rd, black river falls, wi 54615, usa"
"Couture By Tess Bridal, LLC","31 W. Broad St, Cookeville, TN",175,-85.5068853,36.1641767,"31 w broad st, cookeville, tn 38501, usa"
"CRAFTS 2 YOU","2441 N Main St Ste 6, Sunset, UT",73,-112.0264452,41.1494019,"2441 n main st #6, sunset, ut 84015, usa"
"C&R Bookkeeping & Tax Services","590 G St Ste 3, Chula Vista, CA",0,-117.0901188,32.6344218,"590 g st #3, chula vista, ca 91910, usa"
"Creations Hair Salon","5753 Hilldale Blvd., Sacramento, CA",2,-121.3569294,38.6723341,"5753 hillsdale blvd, sacramento, ca 95842, usa"
"Cristal's Beauty Salon","3925 Howard st, evanston, IL",0,-87.7275126,42.01882,"3925 howard st, skokie, il 60076, usa"
"C.R. Kurtz, Inc.","802 Navarre Rd. S.W., Canton, OH",1,-81.3848427,40.788138,"802 navarre rd sw, canton, oh 44707, usa"
"Cross Edge Martial Arts","134 Winecoff NW, Concord, NC",1,-80.6003613,35.4229569,"134 winecoff ave nw, concord, nc 28025, usa"
"Crystal McKenna","1990 Pawtucket Ave, East Providence, RI",0,-71.3560849,41.821092,"1990 pawtucket ave, east providence, ri 02914, usa"
"C Street Salon and Spa","810 Caroline St STE 201, Fredridgesburg, VA",1915,-77.4590376,38.3019961,"810 caroline st #201, fredericksburg, va 22401, usa"
"Customized Looks!","8481 S Yosemite St, Lone Tree, CO",3,-104.8813103,39.5628103,"8481 s yosemite st, lone tree, co 80124, usa"
"Cuts and Shades of Color","12403 Nacogdoches Rd #94, San Antonio, TX",127,0,0,""
"Cuts by Kelsie","1120 Mississippi Ave, Lynn Haven, FL",0,-85.6375053,30.2406713,"1120 mississippi ave, lynn haven, fl 32444, usa"
"Cuts By Sosa","13055 W Sunrise Blvd, Sunrise, FL",0,-80.326187,26.1470937,"13055 w sunrise blvd, sunrise, fl 33323, usa"
"Dagon Produce","1329 Brentwood Dr, Corpus Christi, TX",0,-97.4049009,27.7547721,"1329 brentwood dr, corpus christi, tx 78415, usa"
"Daintily Polished","345 E Silverado Ranch BLVD, Las Vegas, NV",17,-115.1577432,36.0126615,"345 e silverado ranch blvd, las vegas, nv 89183, usa"
"Daintys Nail Spa","7740 Nova Dr Suite 2, Davie, FL",0,-80.249813,26.090297,"7740 nova dr #2, davie, fl 33324, usa"
"Daisy Nails","4704 Cahaba River Rd, Birmingham, AL",0,-86.737828,33.4321255,"4704 cahaba river rd, vestavia hills, al 35243, usa"
"Dallas ProMax","5225 Town Country Blvd #210, Frisco, TX",0,0,0,""
"Dana's Restaurant & Catering, LLC","94235 Hanawai Cir Unit 1, Waipahu, HI",1,-158.0072759,21.3843004,"94-235 hanawai cir #1, waipahu, hi 96797, usa"
"Danielle Murry","1113 S Foster Street Ste 2, Dothan, AL",152,-85.3916793,31.2095899,"1113 s foster st #2, dothan, al 36301, usa"
"Daniel Nail Spa","28480 State Hwy 74 Ste F, Menifee, CA",3,-117.1641102,33.7434465,"28480 ca-74 ste f, menifee, ca 92585, usa"
"Danjoe","233 East Osage st, Pacific, MO",59,-90.7382284,38.4843659,"233 e osage st, pacific, mo 63069, usa"
"Dapper Doodle","22 skyview Dr, Louisa, KY",0,-82.6355482,38.0648017,"skyview dr, kentucky 41230, usa"
"Darocha Fitness","1936 S Coast Hwy, Laguna Beach, CA",0,-117.7699662,33.5279713,"1936 s coast hwy, laguna beach, ca 92651, usa"
"Dashing Diva Nail Lounge","753 Manhattan Ave, Brooklyn, NY",19414,-73.9526397,40.7266002,"753 manhattan ave, brooklyn, ny 11222, usa"
"datru cutz","7545 tara rd apt.305, jonesboro, GA",3,-84.3601621,33.5481139,"7545 tara rd #305, jonesboro, ga 30236, usa"
"Dean Schultz","8638 Frost AVE, St. Louis, MO",0,-90.3359363,38.7620589,"8638 frost ave, st. louis, mo 63134, usa"
"Debbie R Scoggins Salon","1485 Hwy 34 E, Newman, GA",0,-84.7303199,33.3986626,"1485 ga-34, newnan, ga 30265, usa"
"Dein the Barber","2531 Piedmont RD NE, Atlanta, GA",50,-84.3640648,33.8240667,"2531 piedmont rd ne, atlanta, ga 30324, usa"
"Del Valle Chiropractic and Rehab Clinic","915 Huckleberry St, El Paso, TX",0,-106.4293954,31.7829936,"915 huckleberry st, el paso, tx 79903, usa"
"Demetrius Cooper","2327 Cats Paw View, Converse, TX",374,-98.3558089,29.451836,"2327 cats paw view, converse, tx 78109, usa"
"Demo Account - Bert Carder","124 Panorama Drive, Durango, CO",9,0,0,""
"Demo DBA Name","1234 North Avenue, Winter Garden, FL",3,-81.5886112,28.5762248,"1234 n lakeview ave, winter garden, fl 34787, usa"
"Demo DBA Name","1234 N Somewhere, Anywhere, AZ",0,-111.0937311,34.0489281,"arizona, usa"
"Demo DBA Name","123 red branch rd, columbia, MD",0,-76.8220758,39.2310727,"red branch rd, 2, ellicott city, md 21045, usa"
"Demo DBA Name","123 This Streeet, Broomfield, CO",0,-105.0866504,39.9205411,"broomfield, co, usa"
"Demo DBA Name","1 Charleston Blvd, Las Vegas, NV",0,-115.1531746,36.1593035,"1 e charleston blvd, las vegas, nv 89104, usa"
"Demo DBA Name","308 Winding Brook Ct, Greenville, SC",0,-82.469141,34.9082491,"308 winding brook ct, greenville, sc 29617, usa"
"Demo DBA Name","754 Chester Drive, Hebron, IN",0,-87.1066834,41.3248869,"754 chester dr, hebron, in 46341, usa"
"Demo Demo","111 Main st, Chicago, IL",0,-87.6720493,42.0340164,"111 main st, evanston, il 60202, usa"
"Demo - Gabe's Nails & More...","112 Main St., San Francisco, CA",10,-122.3947709,37.7915436,"112 main st, san francisco, ca 94105, usa"
"Demo-ICC South","251 N Rose St Ste 244, Kalamazoo, MI",2,-85.5852697,42.2933316,"251 n rose st #244, kalamazoo, mi 49007, usa"
"Demo MCR","1600 Penselvania Av, Walton, KY",0,-76.9818127,38.8791765,"1600 pennsylvania ave. se, washington, dc 20003, usa"
"demo-Michael Garrett store","dummy, dummy, TN",0,-86.5804473,35.5174913,"tennessee, usa"
"demo-sap","500 west madison, chicago, IL",0,-87.6403882,41.8823062,"citigroup center, 500 w madison st, chicago, il 60661, usa"
"Demo - Test Prod Payments App Account","500 West Madison, Chicago, IL",1,-87.6403882,41.8823062,"citigroup center, 500 w madison st, chicago, il 60661, usa"
"Dental Loft","50 East 100 South Suite 202, Saint George, UT",0,-113.5820018,37.1061753,"50 e 100 s #202, st. george, ut 84770, usa"
"Dermaglow Denver Med SPA LLC","3090 S Jamaica Ct, Aurora, CO",22,-104.8617432,39.6607718,"wedgwood building, 3090 s jamaica ct, aurora, co 80014, usa"
"Design Additions","3569 St Johns Avenue, Jacksonville, FL",0,-81.7037938,30.2970512,"3569 st johns ave, jacksonville, fl 32205, usa"
"Detective Dan Prod Test","300 California Street, San Francisco, CA",14,-122.4004457,37.7934926,"300 california st, san francisco, ca 94104, usa"
"Detective Dan's","300 California Street, San Francisco, CA",0,-122.4004457,37.7934926,"300 california st, san francisco, ca 94104, usa"
"Devwoods Studio Salon","148 South Saginaw St #2, St. Charles, MI",1148,0,0,""
"DFW Auto Spa","5971 Mendocino Dr, Dallas, TX",0,-96.8079825,32.957305,"5971 mendocino dr, dallas, tx 75248, usa"
"Diagnostico Por Imagen By Juan Antonio","Av. Niños Heroes no 2915, Jardinez Del Bosque, Guadalajara, JAL",0,-103.3880404,20.6662795,"av niños héroes 2915, jardines del bosque, 44520 guadalajara, jal., mexico"
"Directed Wellness Center","210 W Lexington Ave, Independence, MO",2,-94.4176784,39.0922568,"210 w lexington ave, independence, mo 64050, usa"
"Divinas Salon - Iris Meza Galeana","1372 West Creek Blvd, Murfreesboro, TN",0,-86.3776574,35.8527366,"1372 west st, murfreesboro, tn 37130, usa"
"DIY Garage Knox","6001 Chapman Hwy, Knoxville, TN",13,-83.8792497,35.9211641,"6001 chapman hwy, knoxville, tn 37920, usa"
"Doggie Do's Grooming Salon Inc.","2190 Broad St., Cranston, RI",0,-71.3903891,41.7654003,"2190 broad st, cranston, ri 02905, usa"
"Doggyday Inn Resort and Grooming LLC","3849 Northdale Boulevard, Tampa, FL",18,-82.504926,28.0943854,"3849 northdale blvd, tampa, fl 33624, usa"
"Dominique Randall","3158 Hwy 278 NW, Covington, GA",0,-83.8479237,33.6026547,"3158 hwy 278 ne, covington, ga 30014, usa"
"Donald Robertson Insurance Agency LLC","26 Grand Circle Dr, Maryland Heights, MO",0,-90.4102189,38.7142718,"26 grand cir dr, maryland heights, mo 63043, usa"
"Don Carlos Barbershop","9831 Beach Blvd Ste 5, Jacksonville, FL",441,-81.5554685,30.2873936,"9831 beach blvd #5, jacksonville, fl 32246, usa"
"DONT B SHY BEAUTY STUDIO LLC","1516 PALM BAY RD, PALM BAY, FL",125,-80.626838,28.0346814,"1516 palm bay rd ne, palm bay, fl 32905, usa"
"Dover Honing Co","703 8th st, San Diego, CA",18,-117.0997209,32.6780698,"703 e 8th st, national city, ca 91950, usa"
"Downey Brows","10921 Downey Ave, Downey, CA",0,-118.1317663,33.9422251,"10921 downey ave, downey, ca 90241, usa"
"Dragonfly Permanent Makeup","814 S College Road Suite C, Wilmington, NC",618,-77.8848037,34.2216939,"814 s college rd suite c, wilmington, nc 28403, usa"
"Dr Deena Stacer","16516 Bernardo Center Dr ste130, San Diego, CA",1,-117.0783465,33.0142369,"16516 bernardo center dr #130, san diego, ca 92128, usa"
"Dr Harris - Mission Grove Chiropractic, Inc.","6670 Alessandro blvd ste A, Riverside, CA",4,-117.3461892,33.9305682,"6670 alessandro blvd ste a, riverside, ca 92506, usa"
"Dripped by Nina","1000 peridot pkwy apt 6302, stockridge, GA",0,-84.2710547,33.5475936,"1000 peridot pkwy #6302, stockbridge, ga 30281, usa"
"Dr. Jeana Ned","6864 S Mason Rd, Katy, TX",391,-95.7437026,29.703967,"6864 s mason rd, katy, tx 77450, usa"
"Dynamic Retail Solutions","United States, New Orleans, LA",1,-90.0715323,29.9510658,"new orleans, la, usa"
"Dynamite Braids Hair Salon & Spa","7047 Frankford Ave, Philadelphia, PA",820,-75.0450417,40.0342971,"7047 frankford ave, philadelphia, pa 19135, usa"
"Dynasty Cuts Barbershop","2952 Dunn Avenue #2, Jacksonville, FL",672,0,0,""
"EAG Performance","625 Nelms Circle, Fredericksburg, VA",0,-77.4995474,38.3522499,"625 nelms cir, fredericksburg, va 22406, usa"
"Eclectic CO.","214 1/2 N Tejon, Colorado Springs, CO",40,-104.8238434,38.83728,"214 1/2 n tejon st, colorado springs, co 80903, usa"
"Eden Nails","1658 President Ave, Fall River, MA",1,-71.1274485,41.7129227,"1658 president ave, fall river, ma 02720, usa"
"Ela Salon","2901 Florida Ave Suite 805, Cocunut Grove, FL",10,-80.24128,25.7292912,"2901 florida ave #805, miami, fl 33133, usa"
"Ela's Nails & Spa","168 S. Texas Blvd. Ste A, Weslaco, TX",0,-97.9909533,26.161445,"168 s texas blvd ste a, weslaco, tx 78596, usa"
"El Capitan Taqueria","1725 Polk St, San Francisco, CA",0,-122.4213895,37.7927954,"1725 polk st, san francisco, ca 94109, usa"
"El Club del Exito","2105 belton dr, Arlington, TX",0,-97.0725969,32.6526256,"2105 belton dr, arlington, tx 76018, usa"
"Elena Baker Dance Studio","1815 Trawood Ste B-2, El Paso, TX",0,-106.3382391,31.7660226,"1815 trawood dr ste b-2, el paso, tx 79935, usa"
"Elite Class Automotive","104A S Beverly Dr, Locust, NC",0,-80.4121217,35.2616194,"104 s beverly dr, locust, nc 28097, usa"
"Elite Performance Physical Therapy LLC","19146 S Molalla Ave Suite A, Oregon City, OR",0,-122.583465,45.3297919,"19146 s molalla ave suite a, oregon city, or 97045, usa"
"el jul 17 pay 1 online","1000 mail st, Walnut Creek, CA",2,-122.0594729,37.8969028,"1000 s main st, walnut creek, ca 94596, usa"
"el uw core aug 28","300 california st, san francisco, CA",0,-122.4004457,37.7934926,"300 california st, san francisco, ca 94104, usa"
"Emergency Chiropractic","750 W. High St. Suite 200, Lima, OH",313,-84.1151821,40.7420268,"750 w high st ste 200, lima, oh 45801, usa"
"Emergency Chiropractic","7588 Central Parke Blvd Ste 112, Mason, OH",11,-84.3170364,39.3291772,"7588 central parke blvd #112, mason, oh 45040, usa"
"Emilies Places 2","300 california st, san francisco, CA",0,-122.4004457,37.7934926,"300 california st, san francisco, ca 94104, usa"
"Emma Justine Hair Lounge and Spa","11511 Main St, Louisville, KY",2116,-85.5424665,38.2448057,"11511 main st, louisville, ky 40243, usa"
"EM Nail","906 Alton Rd, Miami Beach, FL",17,-80.1411347,25.7795241,"906 alton rd, miami beach, fl 33139, usa"
"Empire Beauty LLC","661 N 500 W, Provo, UT",0,-111.6678052,40.2424538,"661 n 500 w, provo, ut 84601, usa"
"En Pointe Hair Studio","100 Glen St # 10, Glens Falls, NY",1,0,0,""
"Envy Salon & Spa","51 railroad ave, hilton, NY",0,-77.7919384,43.2896831,"51 railroad ave, hilton, ny 14468, usa"
"Epik Hair Studios","4201 Buffalo Rd, N. Chili, NY",5748,-77.7901285,43.1258402,"4201 buffalo rd, north chili, ny 14514, usa"
"Equinimity","11050 Manning Ave S Hastings, Minnesota, Hastings, MN",7,-92.86581,44.787927,"11050 manning ave s, hastings, mn 55033, usa"
"Era Salon","7885 Lichen Dr, Citrus Heights, CA",1,-121.3118589,38.7092252,"7885 lichen dr, citrus heights, ca 95621, usa"
"ER Custom Automotive","7110 NW 6th Ct, Miami, FL",21,-80.2081549,25.8399316,"7110 nw 6th ct, miami, fl 33150, usa"
"Ericka's Somabel Med Spa","4435 S Jackson Rd, Edinburg, TX",502,-98.1936341,26.2609709,"4435 s jackson rd, edinburg, tx 78539, usa"
"Essentials Salon LLC","2107 Bagnell Dam Blvd Ste 108, Lake Ozark, MO",0,-92.6432784,38.1895324,"2107 bagnell dam blvd #108, lake ozark, mo 65049, usa"
"Esthétique Vitale","3562 E. 51st St., Tulsa, OK",0,-95.935864,36.0884432,"3562 e 51st st, tulsa, ok 74135, usa"
"Estilo Salon","313 Main St E, Menomonie, WI",1,-91.9267764,44.8767037,"313 main st e, menomonie, wi 54751, usa"
"Estilo Salon","438 water st, eau claire, WI",0,-91.5094222,44.8023459,"438 water st, eau claire, wi 54703, usa"
"Estomago Feliz","300 W. Mitchell, San Antonio, TX",0,-98.4964985,29.3933246,"300 w mitchell st, san antonio, tx 78204, usa"
"Estrella's Bakery","9030 Albemarle Rd suite b, Charlotte, NC",0,-80.6898616,35.2112238,"9030 albemarle rd suite b, charlotte, nc 28227, usa"
"Euphoria","332 Adams St SE, Albuquerque, NM",1,-106.5939536,35.0747585,"332 adams st se, albuquerque, nm 87108, usa"
"Euphoria Reign","11116 W California Ave, Youngtown, AZ",44,-112.299475,33.596163,"11116 w california ave, youngtown, az 85363, usa"
"Euphoria Salon and Spa Alison","1038 W 1st North St, Morristown, TN",0,-83.3052123,36.20865,"1038 w 1st n st, morristown, tn 37814, usa"
"Euphoria Salon and Spa Tonya","1038 W 1st North St, Morristown, TN",0,-83.3052123,36.20865,"1038 w 1st n st, morristown, tn 37814, usa"
"Euphoria Salon & Spa Lesa","1038 W 1st North St, Morristown, TN",60,-83.3052123,36.20865,"1038 w 1st n st, morristown, tn 37814, usa"
"Euphoria Salon & Spa Olivia","1038 W 1st North St, Morristown, TN",0,-83.3052123,36.20865,"1038 w 1st n st, morristown, tn 37814, usa"
"Euphoria Salon & Spa Olivia","1038 W. First N Street, Morristown, TN",0,-83.3052123,36.20865,"1038 w 1st n st, morristown, tn 37814, usa"
"European Corner Massage&Spa","602 E Tuscaloosa St., Florence, AL",72,-87.6708079,34.8055719,"602 e tuscaloosa st, florence, al 35630, usa"
"Evelyn's Salon - Miralba","4711 US 17 Ste 17, Organe Park, FL",0,-81.7039092,30.1104048,"4711 us-17 #17, orange park, fl 32003, usa"
"Events Home","719 E. Quincy St., San Antonio, TX",0,-98.4875264,29.4388016,"719 e quincy st, san antonio, tx 78215, usa"
"Ever Beautiful A Skin Wellness Studio","140 S Main St, Thiensville, WI",1,-87.9839104,43.2294392,"140 s main st, thiensville, wi 53092, usa"
"Evolve Beauty and Boutique","80925 Overseas Hwy Ste 2, Islamorada, FL",0,-80.645358,24.9087822,"80925 overseas hwy #2, islamorada, fl 33036, usa"
"Executive Beauty Bar","65 Cordial Ct Ste A, Falling Waters, WV",0,-77.9130408,39.548082,"65 cordial ct ste a, falling waters, wv 25419, usa"
"Express Beauty Salon","3553 S 12th Ave #141, Tucson, AZ",0,0,0,""
"Eyebrows Plus Cosmo","1110 Marshall Rd Ste A, Vacaville, CA",9,-121.9731274,38.3467869,"1110 marshall rd ste a, vacaville, ca 95687, usa"
"Eyebrows R Us","4125 S Eastern Ave Unit 103, Las Vegas, NV",0,-115.1194795,36.1138893,"4125 s eastern ave #103, las vegas, nv 89119, usa"
"Eyebrows R Us -  Blue Diamond","3960 Blue Diamond Rd #101, Las Vegas, NV",0,0,0,""
"Eyebrows R Us - Bonanza/Nellis","4880 E Bonanza #1, Las Vegas, NV",0,0,0,""
"Eyebrows R Us - Craig & Jones","6010 W Craig Rd #120, Las Vegas, NV",0,0,0,""
"Eyebrows R Us - Craig & Losee","2575 E Craig #F, Las Vegas, NV",0,0,0,""
"Eyebrows R Us - Eastern & Flamingo","4125 S Eastern Ave Unit 103, Las Vegas, NV",0,-115.1194795,36.1138893,"4125 s eastern ave #103, las vegas, nv 89119, usa"
"Eyebrows R Us - Fort Apache & Tropicana","4825 S Ft Apache #J, Las Vegas, NV",0,0,0,""
"Eyebrows R Us - Green Valley & Warm Springs","2293 N Green Valley Pkwy, Las Vegas, NV",0,-115.084563,36.056214,"2293 n green valley pkwy, henderson, nv 89014, usa"
"Eyebrows R Us -  Meadows","4530 Meadows Ln Unit C2, Las Vegas, NV",0,-115.2023012,36.1716351,"4530 meadows ln c2, las vegas, nv 89107, usa"
"Eyebrows R Us - Rainbow & Sunset","6295 S Rainbow #102, Las Vegas, NV",0,0,0,""
"Eyebrows R Us - Sahara & Decatur","3540 W Sahara #E6, Las Vegas, NV",0,0,0,""
"Eyebrows R Us - Sahara & Valley View","3540 West Sahara Ave Unit E1, Las Vegas, NV",0,-115.1885648,36.1457849,"rebel republic, 3540 w sahara ave e1, las vegas, nv 89102, usa"
"Eyebrows R Us - Summerlin","10860 W Charleston #150, Las Vegas, NV",1,0,0,""
"Eyebrows R Us - Windmill & Eastern","8140 S Eastern Ave Unit 4, Las Vegas, NV",0,-115.1164682,36.0412716,"8140 s eastern ave #4, las vegas, nv 89123, usa"
"Eyetailor Optical","1201 US Highway 1 Suite # 23 B, North Palm Beach, FL",0,0,0,""
"EZN Storage","1009 Shelton Beach Road, Saraland, AL",0,-88.096495,30.807081,"1009 shelton beach rd, saraland, al 36571, usa"
"Fabulash Queen","1093 Orem Blvd #B, Orem, UT",93,0,0,""
"Faith Fitness Center","101 E. Screven Street, Quitman, GA",0,-83.5598535,30.7845715,"101 e screven st, quitman, ga 31643, usa"
"Fan C Style","31217 Plymouth Rd, Livonia, MI",1,-83.3512417,42.3682598,"31217 plymouth rd, livonia, mi 48150, usa"
"Farm Of Dreams","2248 Culbreath Road, Brooksville, FL",0,-82.3703238,28.4670975,"2248 culbreath rd, brooksville, fl 34602, usa"
"Fastest Labs of South Denver","6810 S Dallas Way, Greenwood Village, CO",177,-104.8774972,39.5930663,"6810 s dallas way, englewood, co 80112, usa"
"Fastest Labs of Tempe","2105 S 48th Street Suite 108, Tempe, AZ",25,-111.9775932,33.4068636,"2105 s 48th st #108, tempe, az 85282, usa"
"Fat Alberts","106 E. Gridley Rd., Gridley, IL",0,-88.8805678,40.7399289,"106 e gridley rd, gridley, il 61744, usa"
"Femina Hair Make Up & Spa","6523 Bandera Rd., San Antonio, TX",0,-98.612782,29.4920515,"6523 bandera rd, san antonio, tx 78238, usa"
"Fetal Memories 2D 3D 4D Ultrasound","1018 N Tustin Street, Orange, CA",2,-117.8361338,33.8043179,"1018 n tustin st, orange, ca 92867, usa"
"Fingers of Faith Hair Salon","4300 Portsmouth Blvd, Chesapeake, VA",20,-76.4203331,36.8234504,"4300 portsmouth blvd, chesapeake, va 23321, usa"
"Fisherman’s Mobile RV Repair","3774 E Everglade Ave, Odessa, TX",0,-102.3508789,31.8849729,"3774 e everglade ave, odessa, tx 79762, usa"
"FITNESS ELITE","628 Cedar St, Perry, OK",1,-97.2874128,36.2859236,"628 cedar st, perry, ok 73077, usa"
"Five Corner Cuts","77 W State St, Granby, MA",3,-72.5443571,42.2471616,"77 w state st, granby, ma 01033, usa"
"Five Elements of Healing LLC","151 church street north east, concord, NC",16,-80.5884717,35.4185,"151 church st n, concord, nc 28025, usa"
"FLO ELITE CLEANING SPECIALISTS LLC","4505 N. 56TH ST. BLG F, TAMPA, FL",2,-82.3949777,27.9856825,"4505 n 56th st bldg f, tampa, fl 33610, usa"
"Flowers of Honor","1633 S Winstel Ave, Tucson, AZ",0,-110.91087,32.202621,"1633 s winstel ave, tucson, az 85713, usa"
"Foxden Salon","524 Washington Street, Brainerd, MN",0,-94.2010917,46.3576624,"524 washington st, brainerd, mn 56401, usa"
"Frame Gallery Off the Square","125 N Marion St, Athens, AL",0,-86.9711978,34.8042288,"125 n marion st, athens, al 35611, usa"
"Franklin's Auto Repair","300 California St, San Francisco, CA",3,-122.4004457,37.7934926,"300 california st, san francisco, ca 94104, usa"
"French Pastry Cafe & More","111 AABC Suite G, Aspen, CO",0,-106.8607522,39.2190479,"111 aspen airport business center suite g, aspen, co 81611, usa"
"Fresko Grilled Sandwich","132 Saint Andrews Dr, Murfreesboro, TN",0,-86.4453803,35.8440547,"132 st andrews dr, murfreesboro, tn 37128, usa"
"Fringe Salon LLC","1150 Oaklawn Ave, Cranston, RI",0,-71.4777537,41.7384947,"1150 oaklawn ave, cranston, ri 02920, usa"
"Full Count Academy","8429 Rendon Bloodworth Dr, Mansfield, TX",3,-97.1811151,32.5826006,"8429 rendon bloodworth rd, mansfield, tx 76063, usa"
"Full Plate Strength and Conditioning","66 S Broad St, Westfield, MA",2,-72.7460128,42.110301,"66 s broad st, westfield, ma 01085, usa"
"Fully Promoted Lake Norman","19420 Jetton Road Ste 103, Cornelius, NC",0,-80.8922972,35.4765172,"19420 jetton rd #103, cornelius, nc 28031, usa"
"Gabe's Barbershop","123 Seacrest Ln, San Francisco, CA",26,-122.4194155,37.7749295,"san francisco, ca, usa"
"Gemma Winslet Nail Lounge","1109 International  Drive Suite 1611, Lake Mary, FL",31,-81.3569137,28.7818634,"1109 international pkwy #1611, lake mary, fl 32746, usa"
"Gena's Cuts N Tans","455 Hwy 6 East, Batesville, MS",969,-89.9398729,34.3115583,"455 ms-6, batesville, ms 38606, usa"
"G & G Pest Control","301 S Adams St, Beeville, TX",1,-97.7436861,28.4015079,"301 s adams st, beeville, tx 78102, usa"
"Gia's Canvas","450 S Buffalo Dr, Las Vegas, NV",62,-115.2588466,36.1668488,"450 s buffalo dr, las vegas, nv 89145, usa"
"Glamorous Salon Spa","2989 N. Main Street, Walnut Creek, CA",2,-122.0620305,37.9283694,"2989 n main st, walnut creek, ca 94597, usa"
"Glamour Paws","10005 Dauphin Island Pkwy, Theodore, AL",1,-88.1126197,30.4821151,"10005 dauphin island pkwy, theodore, al 36582, usa"
"Glitz Glamour & Style Salon","4606 Wetz, San Antonio, TX",0,-98.3984423,29.5768032,"4606 wetz dr, san antonio, tx 78217, usa"
"Gloss Beautique","767 2nd ave, eauclaire, WI",0,-91.5039396,44.8089282,"767 2nd ave, eau claire, wi 54703, usa"
"Gloss Beautique - Menomonie","332 main st e, menomonie, WI",0,-91.9263756,44.8762541,"332 main st e, menomonie, wi 54751, usa"
"Golden Dagger","510 20th St, Huntington, WV",93,-82.4222668,38.4226937,"510 20th st, huntington, wv 25703, usa"
"Good Vibrations Yoga","11 10th ave S, Hopkins, MN",22,-93.4124187,44.9238366,"11 10th ave s, hopkins, mn 55343, usa"
"Goodwin Chiropractic LLC","1 Elizabeth Pl Ste 280, Dayton, OH",1,-84.1998303,39.7479641,"1 elizabeth pl #280, dayton, oh 45417, usa"
"Goo Goo Dogs","189 W 300 S, Provo, UT",1,-111.6617059,40.2295815,"189 w 300 s, provo, ut 84601, usa"
"Gopher Liquors","5929 S University Blvd, Greenwood Village, CO",0,-104.9602174,39.6088281,"5929 s university blvd, littleton, co 80121, usa"
"GotNailedAtWendysNailAndSpa","311 3rd St N Ste 103, Jacksonville Beach, FL",322,-81.3920938,30.2912906,"311 3rd st n #103, jacksonville beach, fl 32250, usa"
"Grace Grooming LLC","332 Burkett Flat Road, Greenbrier, AR",9,-92.4502157,35.2567927,"332 burkett flat rd, greenbrier, ar 72058, usa"
"GRACY'S BEAUTY SALON","10330 Hole Ave, Riverside, CA",1,-117.4657787,33.9149799,"evolve tattoo & body piercing, 10330 hole ave, riverside, ca 92505, usa"
"Grand Salon Hair Studio","1 Glen Ave, Scotia, NY",61,-73.9596,42.822433,"1 glen ave, scotia, ny 12302, usa"
"Green Turtle Salon & Spa","1590 W Horizon Ridge Pkwy, Henderson, NV",0,-115.0563761,36.016845,"1590 w horizon ridge pkwy, henderson, nv 89012, usa"
"GR Facial, Wax and Lash LLC","6339 Argyle Forest Blvd STE 2, Jacksonville, FL",4,-81.7462079,30.1910341,"6339 argyle forest blvd #2, jacksonville, fl 32244, usa"
"Grips Ink Art Collective","809 Hollywood Rd NW Ste D, Atlanta, GA",0,-84.4501254,33.7773377,"809 hollywood rd nw ste d, atlanta, ga 30318, usa"
"Guacamole King","402 W Arrow Hwy Ste 10, San Dimas, CA",0,-117.8145196,34.1024764,"402 w arrow hwy #10, san dimas, ca 91773, usa"
"Haddock Chiropractic and Wellness Center llc","2614 FM 1585 suite11, Lubbock, TX",293,-101.874458,33.4767291,"haddock chiropractic & wellness center, 2614 fm1585 suite 11, lubbock, tx 79423, usa"
"HAIR BY ALEX","862 ARNOLD COMMONS DRIVE, ARNOLD, MO",0,-90.3831023,38.436814,"862 arnold commons dr, arnold, mo 63010, usa"
"Hair by Ashley Buck","275 RIver Road #D, Salinas, CA",0,0,0,""
"Hair By Brooke","100 N. Madison Suite B, Greenwood, IN",0,-86.1108841,39.6164661,"100 n madison ave suite b, greenwood, in 46142, usa"
"Hair by Charity","117 Renne Ford Rd, Locust, NC",0,-80.4377801,35.2535763,"117 renee ford rd, locust, nc 28097, usa"
"Hair By Dominique","4010 Highway 6 S Ste H, Houston, TX",2,-95.6447222,29.7132365,"4010 s texas 6 ste h, houston, tx 77082, usa"
"Hair by Jenna Lenae","5163 Main St, Lucedale, MS",12,-88.5870076,30.9246177,"5163 main st, lucedale, ms 39452, usa"
"Hair by McKenzie McCullough","303 E Central Entrance, Duluth, MN",0,-92.1262415,46.8006926,"303 e central entrance, duluth, mn 55811, usa"
"Haircuts by Harold LLC","1034 2nd St Ste A, Lafayette, CA",1,-122.1133447,37.8938999,"1034 second st ste a, lafayette, ca 94549, usa"
"Hair Designs By Eve","13869 SW 151 St, Miami, FL",0,-80.4389324,25.6376247,"13869 sw 151st ct, miami, fl 33196, usa"
"Hair Designs By Sonia Morrow","4011 Seven Hills Dr, Florissant, MO",1,-90.2798806,38.7789019,"4011 seven hills dr, florissant, mo 63033, usa"
"Hair Experts Plus","7520 West Cliff Dr, Las Vegas, NV",166,-115.2588697,36.1746115,"7520 westcliff dr, las vegas, nv 89145, usa"
"Hair Mechanix","611 A. Big Bear Blvd, Columbia, MO",1,-92.3301359,38.9776573,"611 big bear blvd, columbia, mo 65202, usa"
"Hairology Studio LLC","2350 cemetery rd, north east, PA",3432,-79.8565549,42.2140691,"2350 cemetery rd, north east, pa 16428, usa"
"Hairport Salon","8991 Pembroke Rd, Pembroke Pines, FL",2,-80.2644305,25.9947911,"8991 pembroke rd, pembroke pines, fl 33025, usa"
"Hair Studio","103 W Gordon St, Thomaston, GA",6,-84.3263797,32.8869673,"103 w gordon st, thomaston, ga 30286, usa"
"Hair Therapy Salon and Spa","57 Crowell Road, Covington, GA",0,-83.9073675,33.5827599,"57 crowell rd, covington, ga 30014, usa"
"HAIRWORKS","8230 Mira Mesa Blvd Ste C, San Diego, CA",0,-117.14653,32.9142719,"8230 mira mesa blvd ste c, san diego, ca 92126, usa"
"Hair Worx Salon","703 N. Davis Street, Nashville, GA",1614,-83.2492416,31.212741,"703 n davis st, nashville, ga 31639, usa"
"Hairy Styles Pet Salon Inc","5109 N Edgewood Drive, Provo, UT",4,-111.6578972,40.3017041,"5109 n edgewood dr, provo, ut 84604, usa"
"Haley Hammell","16953 Hwy 72, rogersville, AL",0,-86.7861148,34.7476819,"16953 hwy 72 w, madison, al 35758, usa"
"Hazzard Fitness and Tan","26 Dutchtown plaza, Palatine Bridge, NY",3,-74.5724324,42.913239,"26 dutchtown plz, palatine bridge, ny 13428, usa"
"H Beauty Salon LLC","8746 Grissom Rd, San Antonio, TX",0,-98.6566405,29.4789224,"8746 grissom rd, san antonio, tx 78251, usa"
"HD Machine","2525 Schillinger Rd. N., Semmes, AL",0,-88.2262606,30.7429086,"2525 schillinger rd n, semmes, al 36575, usa"
"Healing Spa and Massage","2695 N. Military Tr, West Palm Beach, FL",69,-80.1112402,26.7169096,"2695 n military trl, west palm beach, fl 33409, usa"
"Healthy Nurse by Design","3948 Market Street, Minneapolis, MN",1,-93.3317299,44.9137105,"3948 market st, minneapolis, mn 55424, usa"
"Hector's Haircuts","300 California St, San Francisco, CA",29,-122.4004457,37.7934926,"300 california st, san francisco, ca 94104, usa"
"Hello Beautiful LLC","1991 Mineral Spring Ave, North Providence, RI",2,-71.4721769,41.859986,"1991 mineral spring ave, north providence, ri 02904, usa"
"HFC & Shawarma Grill","6242-44 N California Ave, Chicago, IL",0,-87.7000017,41.9951483,"6242 n california ave, chicago, il 60659, usa"
"Hidden Beauty Salon &Spa","709 Woodward Ave, Muscle Shoals, AL",0,-87.667283,34.7536417,"709 woodward ave, muscle shoals, al 35661, usa"
"Hidden Hills Portable Buildings","4050 Florence blvd, florence, AL",0,-87.5850043,34.8442664,"4050 florence blvd, florence, al 35634, usa"
"High Maintenance","5225 Hwy 84 West, Laurel, MS",0,-89.2063363,31.6960496,"5225 us-84, laurel, ms 39443, usa"
"Hollis Ross Demo Account","111 Main Stree, San Francisco, CA",0,-122.3945739,37.7915671,"111 main st, san francisco, ca 94104, usa"
"Holmes Chiropractic Inc","1111 North Loop W Ste 155, Houston, TX",0,-95.4193186,29.8117091,"1111 n loop w #155, houston, tx 77008, usa"
"Home Expressions","111 E James St, Columbus, WI",1,-89.0141428,43.3383389,"111 e james st, columbus, wi 53925, usa"
"Home With Help","8080 E Gelding Dr #104, Scottsdale, AZ",0,0,0,""
"Honey Hush Beauty Parlor","7734 Hwy 43, Florence, AL",1,-87.677251,34.79981,"florence, al, usa"
"HOUSTON COLOSSEUM ACADEMY LLC,","14929 Westpark Dr., Houston, TX",1,-95.6526304,29.717867,"14929 westpark dr, houston, tx 77082, usa"
"HP Nails","2818 West US HWY 421, Wilkesboro, NC",0,-81.2082039,36.1506946,"2818 us-421, wilkesboro, nc 28697, usa"
"Hurricane Diesel Performance","7655 Tara Drive, Semmes, AL",0,-88.2219636,30.7246261,"7655 tara dr, semmes, al 36575, usa"
"Hyperbaric Fitness","15 Holbrook Ave, Swanzey, NH",2,-72.3242912,42.8693378,"15 holbrook ave, swanzey, nh 03446, usa"
"IAM Church","3066 W Clarendon Ave, Phoenix, AZ",1,-112.125448,33.4925778,"3066 w clarendon ave, phoenix, az 85017, usa"
"Ida's Bubble Tea Shop","555 North Tea Shop, Chicago, IL",8,-87.6432298,41.9327017,"557 w diversey pkwy, chicago, il 60614, usa"
"Ideal You Weight Loss Inc.","1129 Airline Rd., Corpus Christi, TX",3,-97.362808,27.7104188,"1129 airline rd, corpus christi, tx 78412, usa"
"Images By Vincenzo","2050 East Henrietta Rd, Rochester, NY",0,-77.6055708,43.0789674,"2050 e henrietta rd, rochester, ny 14623, usa"
"iMassage Corrective Bodywork","1018 N Cass St, Wabash, IN",760,-85.834043,40.810245,"1018 cass st, wabash, in 46992, usa"
"iNails & Spa","160 Ritchie highway, severna park, MD",40,-76.566194,39.098557,"160 ritchie hwy, severna park, md 21146, usa"
"I Natural Salon & Spa","3001 Pablo Kisel Blvd Ste 1, Brownsville, TX",8,-97.5065773,25.9624191,"3001 pablo kisel blvd #1, brownsville, tx 78526, usa"
"Infinite Ways LLC","522 E 17th, Cheyenne, WY",87,-104.8095077,41.136293,"522 e 17th st, cheyenne, wy 82001, usa"
"InsideOut","330 j street, san diego, CA",0,-117.1614469,32.7095624,"330 j st, san diego, ca 92101, usa"
"Inside Out Studio","3529 Cloverdale Rd, Florence, AL",346,-87.6913719,34.8534031,"3529 cloverdale rd, florence, al 35633, usa"
"Insignia Hair Salon","1530 Locust Street, Walnut Creek, CA",55,-122.062404,37.900209,"1530 locust st, walnut creek, ca 94596, usa"
"Intermountain Massage Therapy College","405 S 100 W Ste 200, Bountiful, UT",415,-111.8825462,40.8850241,"405 s 100 w #200, bountiful, ut 84010, usa"
"Ironheart Carpet","4325 E Barnett, MEDFORD, OR",0,-122.7976422,42.3170289,"4325 e barnett rd, medford, or 97504, usa"
"Isimadore Nappy Rutz","521 W Evans Street, Florence, SC",85,-79.7746048,34.1970543,"521 w evans st, florence, sc 29501, usa"
"Itz Styles Salon","709 East Main St, Fredericksburg, TX",4,-98.8611296,30.2670287,"709 e main st, fredericksburg, tx 78624, usa"
"IV Bagel Cafe","6551 Trigo Road, Goleta, CA",0,-119.8571334,34.4109706,"6551 trigo rd, goleta, ca 93117, usa"
"Jack the Clippers Barbershop","2850 Yorktowne Blvd, Brick, NJ",0,-74.1467858,40.0200912,"2850 yorktowne blvd, brick township, nj 08723, usa"
"James and Michelle Morgan at SpotOn","603 N. 8th Street, Saint Joseph, MO",1,-94.8503419,39.7712574,"603 n 8th st, st joseph, mo 64501, usa"
"Janet @ Head of Style","612 E Oak St, Fairbury, IL",0,-88.5040703,40.7440605,"612 e oak st, fairbury, il 61739, usa"
"Javier's Barbershop","1112 9th St Ne, Rochester, MN",0,-92.4483143,44.032351,"1112 9th st ne, rochester, mn 55906, usa"
"JAY ACUPUNCTURE","3858 CHICAGO AVE., RIVERSIDE, CA",70,-117.3470712,33.9745221,"3858 chicago ave, riverside, ca 92507, usa"
"Jazzy Handz Beauty Salon","501 B Azalea Dr, Waynesboro, MS",15,-88.6505514,31.6729377,"501 azalea dr, waynesboro, ms 39367, usa"
"JC Invitations LLC","3609 West Ave, San Antonio, TX",0,-98.5265117,29.4961916,"3609 west ave, san antonio, tx 78213, usa"
"JC JS Auto Repair LLC","4871 E Flamingo Rd, Las Vegas, NV",0,-115.067844,36.1144388,"4871 e flamingo rd, las vegas, nv 89121, usa"
"JC Salon (Jamie)","107 South Jackson St, Grove Hill, AL",417,-87.7779037,31.6910018,"107 s jackson st, grove hill, al 36451, usa"
"Jelani Beauty and Barber Shop","977 Reon Drive, Virginia Beach, VA",11,-76.1999709,36.8106973,"977 reon dr, virginia beach, va 23464, usa"
"Jesse's Barbershop","902 West San Marcos Blvd #B, San Marcos, CA",4957,0,0,""
"Jill Bergerud INC","3939 W 69th Street Suite 13, Edina, MN",1,-93.3306282,44.8775625,"3939 w 69th st #13, minneapolis, mn 55435, usa"
"Jimmy Clippers Cuts","7223 Northeast Dr, Austin, TX",0,-97.67966,30.3225692,"7223 northeast dr, austin, tx 78723, usa"
"JJs Hair & Daughters Spa","1356 E. Ervin Rd, Van Wert, OH",1,-84.5613559,40.8583577,"1356 e ervin rd, van wert, oh 45891, usa"
"Johnson Paseur Medley","1847 N Wood Ave, Florence, AL",0,-87.6836341,34.8257763,"1847 n wood ave, florence, al 35630, usa"
"JoJo & Gigi's Grooming Spaw","930 Pepper Ave., Wisconsin Rapids, WI",2,-89.8151953,44.3727487,"930 pepper ave, wisconsin rapids, wi 54494, usa"
"Jose Fiesta's Rentals","4832 E. 9th St, Kansas City, MO",0,-94.5243747,39.1018025,"4832 e 9th st, kansas city, mo 64124, usa"
"Joseph Savoie Auto Detailing","PO BOX 182458, Arlington, TX",7,-97.1080656,32.735687,"arlington, tx, usa"
"Jo's Nails","10912 Bulloch Dr, Manassas, VA",1,-77.524086,38.8040743,"10912 bulloch dr, manassas, va 20109, usa"
"Journey Skincare Elisha Stone","15 W Marshall St, Rice Lake, WI",0,-91.7346491,45.5045907,"15 w marshall st, rice lake, wi 54868, usa"
"JRios Business Solutions","2121 Main St, Modesto, CA",0,-120.984744,37.6097396,"2121 main st, modesto, ca 95351, usa"
"J Styles and Cuts Hair Salon","5425 Kostoryz Rd, Corpus Christi, TX",12,-97.4166531,27.7232944,"5425 kostoryz rd, corpus christi, tx 78415, usa"
"Julie's Beauty Salon","5638 N. Clark St, Chicago, IL",1,-87.6692067,41.9846696,"5638 n clark st, chicago, il 60660, usa"
"Just Detailing","870 Ave B Unit 405, Boulder City, NV",0,-114.83842,35.9719892,"870 avenue b apt 405, boulder city, nv 89005, usa"
"Kala Shelton Hair","16953 Highway 72, Rogersville, AL",0,-86.7861148,34.7476819,"16953 hwy 72 w, madison, al 35758, usa"
"K and J Cleaners Inc","6224 31st St E Ste 4, Bradenton, FL",0,-82.5253059,27.4296434,"6224 31st st e #4, bradenton, fl 34203, usa"
"Kandy’s Beauty Salon","3000 W Valencia Rd #240, Tucson, AZ",0,0,0,""
"Kangen Water Store W Sahara","7795 W Sahara Ave, Las Vegas, NV",3,-115.2603284,36.1431479,"7795 w sahara ave, las vegas, nv 89117, usa"
"Kash's Lashes by Kashina","220 5th Ave, Thomaston, GA",0,-84.3263271,32.9032839,"220 5th ave se, thomaston, ga 30286, usa"
"Katella Nails Spa","644 E Katella Ave, Orange, CA",0,-117.846678,33.8088387,"644 e katella ave, orange, ca 92867, usa"
"Kate's Production Test","1797 Timothy Dr, San Mateo, CA",4,-122.2612896,37.4822956,"1797 timothy dr, san carlos, ca 94070, usa"
"Kate Trobee","4742 N Gracemoor Cir, Colorado Springs, CO",0,-104.7399484,38.8955849,"4742 n gracemoor cir, colorado springs, co 80917, usa"
"Kathleen's Fiber Arts","212 River St, Troy, NY",0,-73.693375,42.730878,"212 river st, troy, ny 12180, usa"
"Kathleens Korner - Morgan","101 South Marion St, Athens, AL",0,-86.970708,34.80313,"101 s marion st, athens, al 35611, usa"
"Kathleen's Korner - Whitney","101 South marion, athens, AL",0,-86.970708,34.80313,"101 s marion st, athens, al 35611, usa"
"(Kayla Deluna) Hidden Beauty Salon & Spa","709 Woodward Ave, Muscle Shoals, AL",0,-87.667283,34.7536417,"709 woodward ave, muscle shoals, al 35661, usa"
"KC Curves","6000 w Markham st, Little Rock, AR",0,-92.3428118,34.7533624,"6000 w markham st, little rock, ar 72205, usa"
"KD Nails Salon & Spa","1053 c north walnut st, milford, DE",0,-75.4294199,38.9324686,"1053 n walnut st, milford, de 19963, usa"
"Keen Insight Energy","210 Venetian Bay Cir, Sanford, FL",0,-81.2934956,28.8159266,"210 venetian bay cir, sanford, fl 32771, usa"
"Kennesaw Luxury Hair Boutique & Salon","3055 north main st ste 102, kennesaw, GA",1,-84.6274322,34.0289339,"3055 n main st #102, kennesaw, ga 30144, usa"
"Kenny's Kutz","17308 hwy 72 w, Athens, AL",5,-86.786094,34.7478259,"17308 hwy 72 w, madison, al 35756, usa"
"Kent Williams","6801 W. 12th St., Little Rock, AR",0,-92.3522643,34.7413544,"6801 w 12th st, little rock, ar 72204, usa"
"Keri Powe, LMT","104 W 7th St, Columbia, TN",5,-87.0346883,35.6152901,"104 w 7th st, columbia, tn 38401, usa"
"Kijana Salon","7301 SW 57th Ct STE 130, Miami, FL",143,-80.2861978,25.703493,"7301 sw 57th ct ste 130, south miami, fl 33143, usa"
"KIM ARNOLD BELLISIMO","1120 MISSISSIPPI AVE, LYNN HAVEN, FL",127,-85.6375053,30.2406713,"1120 mississippi ave, lynn haven, fl 32444, usa"
"Kim Davis @ Simply Chic","3241 Old Bay Springs Rd, Laurel, MS",0,-89.140676,31.7302763,"3241 old bay springs rd, laurel, ms 39440, usa"
"King and Queen Mobile Detailing","292 Wages Rd, Auburn, GA",0,-83.855358,34.0245964,"292 wages rd, auburn, ga 30011, usa"
"Kings & Legends Barber and Salon","604-2 East Moody Blvd, Bunnel, FL",0,-81.2555378,29.4690423,"604 e moody blvd #2, bunnell, fl 32110, usa"
"Kings Mane Barbering","4693 Stahl Rd, San Antonio, TX",8,-98.4016315,29.5779025,"4693 stahl rd, san antonio, tx 78217, usa"
"KK's Castle","811 N Thompson Ln, Murfreesboro, TN",0,-86.4303631,35.8601927,"811 n thompson ln, murfreesboro, tn 37129, usa"
"Klein Physical Therapy","2765 S. Colorado Blvd Ste 103, Denver, CO",1,-104.9411441,39.6663033,"2765 s colorado blvd #103, denver, co 80222, usa"
"Kreuser Gallery LLC","125 east boulder street, colorado prings, CO",0,-104.821958,38.8393402,"125 e boulder st, colorado springs, co 80903, usa"
"Kristen's Kreations","192 Pine Grove Road, YatesVille, GA",0,-84.1466259,32.9176988,"192 pine grove rd, yatesville, ga 31097, usa"
"Krypton Car Wash","6942 Pembroke Rd, Pembroke Pines, FL",0,-80.2262032,25.9946875,"6942 pembroke rd, pembroke pines, fl 33023, usa"
"KSC Nail Salon","4269 Sergeant Rd, Sioux City, IA",0,-96.3536291,42.450357,"4269 sergeant rd, sioux city, ia 51106, usa"
"K & T Detailing","1980 Hwy 54 Suite A, Peachtree City, GA",1,-84.556618,33.42743,"1980 ga-54 suite a, fayetteville, ga 30214, usa"
"L7 AUTO GROUP","880 NORTH E. ST., SAN BERNARDINO, CA",2,-117.2945573,34.1153188,"880 n e st, san bernardino, ca 92410, usa"
"Label Graphics Co.","302 Century Ct, Franklin, TN",0,-86.8818136,35.8984087,"302 century ct, franklin, tn 37064, usa"
"La Bella Vida Salon","292 W 800 N, Orem, UT",1,-111.7026137,40.3123163,"292 w 800 n, orem, ut 84057, usa"
"Laguna Beach Aesthetics","32392 S Coast Hwy Ste 240, Laguna Beach, CA",0,-117.7335346,33.4921767,"32392 coast hwy #240, laguna beach, ca 92651, usa"
"LAKESIDE WATERSPORT RENTALS","3960 LAKESIDE RESERVE LANE, ORLANDO, FL",4,-81.4294865,28.6277336,"3960 lakeside reserve ln, orlando, fl 32810, usa"
"La La's Salon and Spa","4327 Boonsboro Rd Unit 2 & 3, Lynchburg, VA",2,-79.2045343,37.4433708,"4327 boonsboro rd #2, lynchburg, va 24503, usa"
"Langston Chiropractic","155 Ana Dr., Florence, AL",0,-87.6320108,34.8321319,"155 ana dr, florence, al 35630, usa"
"Lark St Tattoo","278 Lark St, Albany, NY",1582,-73.7665513,42.6533793,"278 lark st, albany, ny 12210, usa"
"Larry's Auto Service","220 1/2 W Central Ave, Titusville, PA",0,-79.6754012,41.6272618,"220 1/2 w central ave, titusville, pa 16354, usa"
"Larry's Garage","15710 FM 849, Lindale, TX",8,-95.4221497,32.4941882,"15710 fm 849, mt sylvan, tx 75771, usa"
"Laser Derm Med Spa Brownsville","2155 N. Expressway, Brownsville, TX",0,-97.505369,25.946366,"2155 north expy, brownsville, tx 78520, usa"
"Laser Derm Med Spa San Antonio","17503 La Cantera Pkwy, San Antonio, TX",12,-98.5983558,29.607955,"17503 la cantera pkwy, san antonio, tx 78257, usa"
"Lashes and Skin Care by Abra","100 N. Madison Ave., Greenwood, IN",0,-86.1108841,39.6164661,"100 n madison ave, greenwood, in 46142, usa"
"Lash Luks","3 Meriden Way, Boynton Beach, FL",0,-80.083415,26.5677185,"3 meriden way, boynton beach, fl 33426, usa"
"Lash Revival LLC","319 Pinehill Dr, Mobile, AL",763,-88.0968281,30.67499,"319 pinehill dr, mobile, al 36606, usa"
"Lava Hotel Spa","196 E Main St, Lava Hot Springs, ID",0,-112.0100272,42.6194298,"196 main st, lava hot springs, id 83246, usa"
"LD Association Group LLC","30651 Carriage Hill Dr, Menifee, CA",42,-117.1514777,33.6754506,"30651 carriage hill dr, menifee, ca 92584, usa"
"Leah Beasley Hairstylist","437 W Pershing rd, Decatur, IL",2,-88.9628994,39.8759975,"437 w pershing rd, decatur, il 62526, usa"
"Leah Parker @ Simply Chic","3241 Old Bay Springs Rd, Laurel, MS",0,-89.140676,31.7302763,"3241 old bay springs rd, laurel, ms 39440, usa"
"Le Barbershop Chantelle","2045 Sheridan Blvd Unit C, Edgewater, CO",0,-105.0537164,39.7486068,"2045 sheridan boulevard unit c, edgewater, co 80214, usa"
"Le Barbershop Jazlynn","2045 Sheridan Blvd Unit C, Edgewater, CO",0,-105.0537164,39.7486068,"2045 sheridan boulevard unit c, edgewater, co 80214, usa"
"Le Barbershop LLC","2045 Sheridan Blvd, Edgewater, CO",9382,-105.0537164,39.7486068,"2045 sheridan boulevard, edgewater, co 80214, usa"
"Le Prince Hair Salon","1524 West Cary Street, Richmond, VA",3,-77.4612051,37.5465021,"1524 w cary st, richmond, va 23220, usa"
"Lesley Rogers Hair LLC","1427 Dublin St., New Orleans, LA",4,-90.1285592,29.9499037,"1427 dublin st, new orleans, la 70118, usa"
"LESLIE'S PAW SPA & PET SALON","5145 JURUPA AVE. UNIT G2, Riverside, CA",0,-117.4149256,33.9619759,"5145 jurupa ave ste g2, riverside, ca 92504, usa"
"Le V Laser Med Spa","4200 Jaime J Zapata, Brownsville, TX",0,-97.4560908,25.939959,"4200 jaime j. zapata ave, brownsville, tx 78521, usa"
"Lexi’s Chicken Wing Dip","5972 River Forest Circle, Bradenton, FL",12,-82.4864331,27.4537456,"5972 river forest cir, bradenton, fl 34203, usa"
"Liberty Plumbing & Solar","8050 n 19th ave #497, Phoenix, AZ",0,0,0,""
"Life Changers Worship Center","625 W Southern Ave Ste E, Mesa, AZ",0,-111.8452008,33.3928438,"625 w southern ave ste e, mesa, az 85210, usa"
"Life Chiropractic Center","605 N Shetland Ct, Post Falls, ID",3626,-116.9309257,47.7139626,"605 n shetland ct, post falls, id 83854, usa"
"Life Long Appliance","5310 RESERVOIR DR, San Diego, CA",1,-117.055981,32.772793,"5310 reservoir dr, san diego, ca 92115, usa"
"LightSpeed Lift","500 E 10th Street, Duluth, MN",147,-92.1018143,46.7982481,"500 e 10th st, duluth, mn 55805, usa"
"LINO'S BARBER SHOP","327 E 1200 S #7, OREM, UT",2,0,0,""
"Lionetti Hair Clipper Service","1633 E McDowell Rd, Phoenix, AZ",0,-112.0461579,33.4654657,"1633 e mcdowell rd, phoenix, az 85006, usa"
"Lisa Marie Hair LLC","21001 North Tatum Blvd., Phoenix, AZ",0,-111.97447,33.6742826,"21001 n tatum blvd, phoenix, az 85054, usa"
"Little Rockets Academy","5201 N Ware Rd, McAllen, TX",9,-98.2538805,26.2541777,"5201 n ware rd, mcallen, tx 78504, usa"
"Living Canvas Tattoo Parlour","8280 W Coal Mine Ave Ste 11, Littleton, CO",0,-105.0897643,39.5940399,"8280 w coal mine ave #11, littleton, co 80123, usa"
"Livirae Lingerie","543 Roberts Ct NW Ste 200, Kennesaw, GA",0,-84.5642084,34.0083459,"543 roberts ct #200, kennesaw, ga 30144, usa"
"LJ Diamond Network","1157 S. Military Hwy Suite 101B, Chesapeake, VA",9,-76.2236049,36.8060549,"1157 s military hwy #101b, chesapeake, va 23320, usa"
"LJ's Salon & Styles","6801 W 12th St, Littlerock, AR",0,-92.3522643,34.7413544,"6801 w 12th st, little rock, ar 72204, usa"
"LN Nails Salon, Inc.","3007 Eastern Boulevard, Middle River, MD",0,-76.4096261,39.3356563,"3007 eastern blvd, middle river, md 21220, usa"
"Local Gurus Digital","517 Shoreside Way Suite 264, Virginia Beach, VA",9,-76.1204156,36.8221587,"517 shoreside way #264, virginia beach, va 23452, usa"
"Love is in the Hair- Rubi","1313 S Home Ave Suite A, Kokomo, IN",0,-86.1269009,40.4710393,"1313 home ave suite a, kokomo, in 46902, usa"
"Love Lola Therapy Massage","9730 Harriet Ave, Jacksonville, FL",0,-81.6807401,30.4155954,"9730 harriet ave, jacksonville, fl 32208, usa"
"Love Nail Salon","6146 South Dixie Highway, South Miami, FL",3,-80.292342,25.701389,"6146 s dixie hwy, south miami, fl 33143, usa"
"Love Thy Self","1200 Plantation Dr S, North Richland Hills, TX",1,-97.1492946,32.8696881,"1200 plantation dr s, colleyville, tx 76034, usa"
"LuAnn Blohm Hair","6744 West Wells St, Wauwatosa, WI",1,-87.9970492,43.0398492,"6744 w wells st, wauwatosa, wi 53213, usa"
"Lucky V Nail Spa","3750 Alhambra Ave, Martinez, CA",0,-122.1326877,37.997929,"3750 alhambra ave, martinez, ca 94553, usa"
"Luna's Silhouettes Spa","110 Washington Ave, Miami Beach, FL",112,-80.1354438,25.770626,"110 washington ave, miami beach, fl 33139, usa"
"Luxe De Vil","33 E Dakota Ave, Denver, CO",0,-104.986599,39.7094835,"33 e dakota ave, denver, co 80209, usa"
"Lux Exclusive Barbering","2845 Brookdale Dr, Brooklyn Park, MN",1,-93.3189004,45.0963345,"2845 brookdale dr, brooklyn park, mn 55444, usa"
"Lux Lash Bar","20260 C-1 Katy Fwy, Ste #128, Katy, TX",11,0,0,""
"Luz Ma Aesthetics","11921 S Dixie Hwy., Pinecrest, FL",799,-80.3258671,25.6596136,"11921 s dixie hwy, pinecrest, fl 33156, usa"
"Lyric House Beauty Co","330 W Main St, Hendersonville, TN",0,-86.6251661,36.3040829,"330 w main st, hendersonville, tn 37075, usa"
"Mae Robinson Cleaning LLC","3309 Lowe Dr, Murretta, GA",0,-84.5461143,34.0325846,"3309 lowe dr ne, marietta, ga 30066, usa"
"Magdalenas Beauty Salon and Spa","3202 E GREENWAY RD #1632, PHOENIX, AZ",0,0,0,""
"Maggie's Cuts","78 Main Street, Kingston, MA",62,-70.7050333,41.985405,"78 main st, kingston, ma 02364, usa"
"Magnolia Float Spa","3849 Gulf Shores Pkwy, Gulf Shores, AL",2,-87.683923,30.3055799,"3849 gulf shores pkwy, gulf shores, al 36542, usa"
"Mai QA Test2","9906 Kamena Circle, Boynton Beach, FL",5,-80.10579,26.52815,"9906 kamena cir, boynton beach, fl 33436, usa"
"Mandala Massage Therapy","26 NW Irving Ave, Bend, OR",1,-121.3076081,44.0591248,"26 nw irving ave, bend, or 97701, usa"
"Mane Life Salon","208 Arthur Way, Newport News, VA",0,-76.4721352,37.1119373,"208 arthur way, newport news, va 23602, usa"
"Mane Street Salon","127 E Krack St, Forrest, IL",0,-88.409656,40.7497204,"127 e krack st, forrest, il 61741, usa"
"Mans Best Friend Pet Salon & Boutique","7524 West Cliff Dr, Las Vegas, NV",10,-115.259094,36.1745572,"7524 westcliff dr, las vegas, nv 89145, usa"
"March02","500 west madison, chicago, IL",9,-87.6403882,41.8823062,"citigroup center, 500 w madison st, chicago, il 60661, usa"
"Mariachi Flores Mexicanas","9627 Sims Ste D, El Paso, TX",0,-106.356819,31.7633236,"9627 sims dr ste d, el paso, tx 79925, usa"
"Maryland Gift","10300 Little Patuxent Parkway, Columbia, MD",0,-76.8611782,39.2155908,"10300 little patuxent pkwy, columbia, md 21044, usa"
"Massage By Danielle","292 state rd 35, Osceola, WI",0,-92.6970674,45.2519196,"292 wi-35, osceola, wi 54020, usa"
"Matt the Barber","916 S Main Street, Kokomo, IN",71,-86.1308248,40.4771329,"916 s main st, kokomo, in 46901, usa"
"Maxfield Angel Hair","1285 Carpenter Hill rd, Medford, OR",2,-122.869431,42.277429,"1285 carpenter hill rd, medford, or 97501, usa"
"may1Core1","300 california st, san francisco, CA",2,-122.4004457,37.7934926,"300 california st, san francisco, ca 94104, usa"
"Mayberry Music Academy","819 West Pine Street, Mount Airy, NC",0,-80.624275,36.499504,"819 w pine st, mt airy, nc 27030, usa"
"MBR Automotive Specialist","385 N Wright Brothers Dr. Unit 4, Salt Lake City, UT",0,-112.0065787,40.7771302,"385 n wright brothers dr #4, salt lake city, ut 84116, usa"
"McNabbs Tattoo and Fine Art, LLC","1505 S Five Mile Rd, Boise, ID",1,-116.3149534,43.5917008,"1505 s five mile rd, boise, id 83709, usa"
"Meka's Braids and Styling","108 East Main St., Biscoe, NC",56,-79.7792084,35.3596235,"108 e main st, biscoe, nc 27209, usa"
"Meraki Hair Studio","3850 Balfour Rd. Suite 219, Brentwood, CA",6,-121.7071223,37.9243138,"3850 balfour rd #219, brentwood, ca 94513, usa"
"Meraki Massage","1300 John R St Ste B, Muscle Shoals, AL",1012,-87.6657805,34.7486515,"1300 john r st ste b, muscle shoals, al 35661, usa"
"Meraki Massage - Felicia","1300 John R St Ste B, Muscle Shoals, AL",0,-87.6657805,34.7486515,"1300 john r st ste b, muscle shoals, al 35661, usa"
"Merle Norman Cosmetics & Spa","50 S Washington St, Hinsdale, IL",796,-87.9296311,41.8018325,"50 s washington st, hinsdale, il 60521, usa"
"Merlies Braids And More","199 NW 62nd St, Miami, FL",1,-80.200125,25.8326756,"199 nw 62nd st, miami, fl 33150, usa"
"Mermaid Riot","2058 Stringtown Rd, Grove City, OH",3,-83.0581692,39.8800387,"2058 stringtown rd, grove city, oh 43123, usa"
"Michael J Thomas Enterprise LLC","2529 19th st, Lake Charles, LA",0,-93.1816139,30.2049424,"2529 19th st, lake charles, la 70601, usa"
"Michael Koz","500 W Madison St, Chicago, IL",185,-87.6403882,41.8823062,"citigroup center, 500 w madison st, chicago, il 60661, usa"
"Michael Koz","50 california st, maiami, FL",2,-122.4194155,37.7749295,"san francisco, ca, usa"
"Mid City Salon","46 West Broadway, Salt Lake City, UT",0,-111.8925718,40.7630882,"46 broadway, salt lake city, ut 84101, usa"
"Midland Fitness","100 Midland Ave 250, Glenwood Springs, CO",2,-107.3581432,39.5581721,"100 midland ave #250, glenwood springs, co 81601, usa"
"MID Spoton Demo 2","300 california st, san francisco, IL",18,-122.4003528,37.7933167,"300 california st, san francisco, ca 94104, usa"
"MID Spoton Test 1","300 California St, San Francisco, CA",10,-122.4004457,37.7934926,"300 california st, san francisco, ca 94104, usa"
"Midwest Barbery LLC","2012 Main St, Kansas City, MO",7,-94.5839628,39.0886854,"2012 main st, kansas city, mo 64108, usa"
"Midwest Chiropractic Center","6649 N High St Ste 101, Worthington, OH",0,-83.0180521,40.1003273,"6649 n high st #101, columbus, oh 43085, usa"
"Mika's Leaf","11330 Leopard St Ste 500, Corpus Christi, TX",0,-97.5886362,27.8489745,"11330 leopard st #500, corpus christi, tx 78410, usa"
"Mike's Car Detail","460 West 1600 North, Orem, UT",28,-111.706899,40.3269234,"460 w 1600 n, orem, ut 84057, usa"
"Mila Threading & Beauty Salon","4667 Morse Centre Rd, Columbus, OH",0,-82.9632828,40.0622457,"4667 morse centre rd, columbus, oh 43229, usa"
"Mill Valley Car Wash","1234 Main Street, Mill Valley, CA",0,-122.5449763,37.9060368,"mill valley, ca 94941, usa"
"Mindy Rogowski","100 N. Madison Ave Suite # B, Greenwood, IN",0,0,0,""
"Mini's New Prod Merchant","500 Canal, Chicago, IL",0,-87.6399238,41.8747142,"500 s canal st, chicago, il 60607, usa"
"Mini's Test","300 california st, san francisco, CA",2,-122.4004457,37.7934926,"300 california st, san francisco, ca 94104, usa"
"Mink Luxe Salon LLC","1180 West Ave. SW, Conyers, GA",0,-84.0262016,33.6658484,"1180 west ave sw, conyers, ga 30012, usa"
"Mint Day Spa Betty","126 W Wise St, Bowie, TX",1,-97.8497367,33.5592401,"126 w wise st, bowie, tx 76230, usa"
"Mint Day Spa- Chelsey","1004 N Mill St, Bowie, TX",4,-97.8362952,33.5632722,"1004 n mill st, bowie, tx 76230, usa"
"Mint Day Spa Tamra","1004 N Mill St, Bowie, TX",24,-97.8362952,33.5632722,"1004 n mill st, bowie, tx 76230, usa"
"Mira Linda Beauty & Bodyworks","7455 W Washington Ave Ste 210, Las Vegas, NV",4,-115.2560726,36.179253,"7455 w washington ave #210, las vegas, nv 89128, usa"
"MK Flooring","310 W North Water St, New London, WI",0,-88.7423991,44.3925983,"310 w north water st, new london, wi 54961, usa"
"Modesto Cuts","2101 Rumble Rd Suite D, Modesto, CA",0,-121.0320458,37.6822594,"2101 w rumble rd suite d, modesto, ca 95350, usa"
"Modmara","981 C Stuyvesant Ave, Union, NJ",0,-74.2703341,40.6958275,"981 stuyvesant ave, union, nj 07083, usa"
"Mohawk Valley Sylez","165 West Main, Amsterdam, NY",0,-74.1988158,42.9422725,"165 w main st, amsterdam, ny 12010, usa"
"Moler Barber School of Saint Paul LLC","990 Payne Ave, Saint Paul, MN",0,-93.073245,44.971005,"990 payne ave, st paul, mn 55130, usa"
"MOMMAS MEDISPA","135 S.HIGHWAY 101, Solana beach, CA",1740,-117.2717034,32.9908157,"135 hwy 101, solana beach, ca 92075, usa"
"Monarcas Hair Salon","1625 crows Landing, Modesto, CA",0,-120.9935685,37.607001,"1625 crows landing rd, modesto, ca 95358, usa"
"Moon Shine Tanning","985 E. 141st Street, Glenpool, OK",2,-95.994619,35.9598844,"985 e 141st st, glenpool, ok 74033, usa"
"MORENO'S GENERAL AUTO REPAIR INC.","4791 Doane Ave, Riverside, CA",0,-117.4852312,33.9194771,"4791 doane ave, riverside, ca 92505, usa"
"Morgan Investigative Group, LLC","8553 N. Beach Street Ste. 391, Fort Worth, TX",6,-97.290283,32.8955207,"8553 n beach st #391, keller, tx 76244, usa"
"Morton Hunt Family Funeral Home","311 James Hannah Drive, South Shore, KY",0,-82.9609165,38.7189771,"311 james e hannah dr, south shore, ky 41175, usa"
"Mountain Dentistry","2053 Sidewinder Dr, Park City, UT",1,-111.4951532,40.6637296,"2053 sidewinder dr, park city, ut 84060, usa"
"Mountaineere Designs WV INC","69 S Main St, Philipp, WY",0,-71.3474933,42.2812626,"69 s main st, natick, ma 01760, usa"
"Mr. Charlie","600 East Sonterra #4409, San Antonio, TX",0,0,0,""
"Murfreesboro Bio Renew & IV Infusion Clinic","803 N Thompson Ln Ste A104, Murfreesboro, TN",420,-86.4304537,35.8598538,"803 n thompson ln a104, murfreesboro, tn 37129, usa"
"Muse Beautique","12811 Kenwood Ln Ste 109, Fort Myers, FL",122,-81.8737053,26.5548325,"12811 kenwood ln #109, fort myers, fl 33907, usa"
"Music City Party Tub","musiccitypartytub.com, Nashville, TN",3,0,0,""
"My Car Care Connection","398 Delaware Ave, Fort Lauderdale, FL",0,-80.1895443,26.1163805,"398 delaware ave, fort lauderdale, fl 33312, usa"
"Myofascial Restoration and Integration","2835 Mitchell Dr ste 100, Walnut Creek, CA",0,-122.0192539,37.9308394,"2835 mitchell dr #100, walnut creek, ca 94598, usa"
"NAILBAY","7201 Melrose ave ste B, Los Angeles, CA",5,-118.3464231,34.0836844,"7201 melrose ave ste b, los angeles, ca 90046, usa"
"Nail City","1680 Hwy 5 STE 145, Aberdeen, NC",0,-79.4725995,35.1647238,"1680 nc-5 #145, aberdeen, nc 28315, usa"
"Nail Max","1561 plainfield pike, johnston, RI",0,-71.491268,41.791772,"1561 plainfield pike, johnston, ri 02919, usa"
"Nailosophy","481 HARVARD ST, Brookline, MA",3,-71.12848,42.347258,"481 harvard st, brookline, ma 02446, usa"
"Nails 2000","19782 Interstate 45 Ste B, Spring, TX",7,-95.4280329,30.051464,"19782 i-45 ste b, spring, tx 77373, usa"
"Nails and Spa","700 Haywood rd Suite 1054, Greenville, SC",19,-82.3335845,34.8499322,"700 haywood rd #1054, greenville, sc 29607, usa"
"Nails by JT","1319 Castroville Rd., San Antonio, TX",0,-98.5597838,29.4156052,"1319 castroville rd, san antonio, tx 78237, usa"
"Nails by Synovia","5907 NW 2nd Ave, Miami, FL",0,-80.1999782,25.8298161,"5907 nw 2nd ave, miami, fl 33127, usa"
"Nailz & Beyond","8639 Tara Blvd, Jonesboro, GA",0,-84.3651306,33.5186203,"8639 tara blvd, jonesboro, ga 30236, usa"
"Nano's Hair and Day Spa","5339 W Devon Ave, Chicago, IL",0,-87.7626298,41.9971143,"5339 w devon ave, chicago, il 60646, usa"
"Natural Beauty Salon","3251 N University Dr, Coral Springs, FL",0,-80.2498615,26.2713629,"3251 n university dr, coral springs, fl 33065, usa"
"Nectar, A Skincare Boutique","Courtney Square, East Greenwich, RI",3,-71.5130445,41.6342619,"east greenwich, ri 02818, usa"
"NE Florida Raw Dog Food","1267 Ivey Lane, Green Cove Springs, FL",1,-81.693916,30.013329,"1267 ivey ln, green cove springs, fl 32043, usa"
"Nenette’s Beauty Salon","9580 Black Mountain Rd Ste I, San Diego, CA",1,-117.1239935,32.8974335,"9580 black mountain rd ste i, san diego, ca 92126, usa"
"Nevada Lash and Brow Co","22 Winter Street, Reno, NV",3,-119.8223383,39.5223214,"22 winter st, reno, nv 89503, usa"
"Nevada Lash and Brow Co - MADISON","22 Winter Street, Reno, NV",0,-119.8223383,39.5223214,"22 winter st, reno, nv 89503, usa"
"Nevada Lash and Brow Co Teresa","22 Winter Street, Reno, NV",0,-119.8223383,39.5223214,"22 winter st, reno, nv 89503, usa"
"New Concept By Maribel","1133 Elizabeth Ave, Elizabeth, NJ",59,-74.2127279,40.6622478,"1133 elizabeth ave, elizabeth, nj 07201, usa"
"New Dimension Spa & Salon","110 E Agostadero St., Weslaco, TX",3,-97.9900483,26.1656324,"110 e agostadero st, weslaco, tx 78596, usa"
"New Image-1114","1114 Elida Ave, Delphos, OH",2150,-84.3246051,40.8429292,"1114 elida ave, delphos, oh 45833, usa"
"New Image-841","841 N Williams St, Paulding, OH",1301,-84.5802141,41.147881,"841 n williams st, paulding, oh 45879, usa"
"New Reflections Hair Designs - Tracy Anderson","1209 Capuchino Ave, Burlingame, CA",0,-122.3661778,37.5850184,"1209 capuchino ave, burlingame, ca 94010, usa"
"New Scotland Physical Therapy, LLC","1944B New Scotland Rd, Slingerlands, NY",8,-73.9001808,42.6317843,"1944 new scotland rd, slingerlands, ny 12159, usa"
"Next Level Multicultural Salon","101 West South St., Aberdeen, NC",1,-79.428107,35.130561,"101 w south st, aberdeen, nc 28315, usa"
"Nice guy","hello man, malibu, CA",6,-118.7797571,34.0259216,"malibu, ca, usa"
"Nicole Eckes @ Ricciolo Salon","2015 Foothill Blvd, La Verne, CA",0,-117.7662444,34.1142892,"2015 foothill blvd, la verne, ca 91750, usa"
"NijaDonabella Salon","2210 Gathering Park Circle suite 1, Cary, NC",0,-78.8575422,35.8206044,"2210 gathering park cir #1, cary, nc 27519, usa"
"Nirvana Nail Studio","5915 Norwich Ave N Ste 5, Oak Park Heights, MN",30,-92.8293229,45.0347233,"5915 norwich ave n #5, oak park heights, mn 55082, usa"
"Nisswa Hair Salon Candace Rolstad","4820 Country Rd 77, Nisswa, MN",1,-94.3016195,46.5001564,"4820 co rd 77, nisswa, mn 56468, usa"
"Noah Levay Salon","3900 Legacy Park Blvd Ste E100, Kennsaw, GA",0,-84.6229092,34.0491818,"3900 legacy park blvd e100, kennesaw, ga 30144, usa"
"NorthWest Express Auto Care","19144 West Little York, Katy, TX",1,-95.703044,29.865176,"19144 w little york rd, katy, tx 77449, usa"
"Northwest Pine Apple","900 N Riverside, Medford, OR",0,-122.8743914,42.3353818,"900 n riverside ave, medford, or 97501, usa"
"Nourish,  LLC","307 W. Main st., Radford, VA",0,-80.5754208,37.134166,"307 w main st, radford, va 24141, usa"
"Nu Da Locsmyth","1823 Dunn Rd, Florissant, MO",0,-90.3002085,38.7731634,"1823 dunn rd, florissant, mo 63033, usa"
"NU Era Barbershop","630 NW Broad St Unit A, Murfreesboro, TN",3,-86.3984485,35.8493197,"630 nw broad st unit a, murfreesboro, tn 37130, usa"
"Nurtured by Karen","15301 W. 87th Street Parkway Suite B30, Lenexa, KS",6,-94.764146,38.970511,"15301 w 87th st b30, lenexa, ks 66219, usa"
"Oasis Nails","1332 Venture Dr Unit B, Forest, VA",0,-79.2988626,37.3662746,"1332 venture dr unit b, forest, va 24551, usa"
"Oceanside Automotive Specialists","2026 Oceanside Blvd, Oceanside, CA",3,-117.352594,33.1963873,"2026 oceanside blvd, oceanside, ca 92054, usa"
"Odren's Auto Service","690 E Chicago Rd, Coldwater, MI",0,-84.9448782,41.9407149,"690 e chicago rd, coldwater, mi 49036, usa"
"Old Towne Auto and Trailer Registration","20031 W Valley Blvd A, Tehachapi, CA",0,-118.4872343,35.1247859,"20031 w valley blvd ste a, tehachapi, ca 93561, usa"
"Ooh La La Salon","4227 E Shields Ave, Fresno, CA",0,-119.7535022,36.7801437,"4227 e shields ave, fresno, ca 93726, usa"
"Opti Connections","624 N Expressway 77/83, Brownsville, TX",7,-97.4927905,25.9320937,"624 n expressway #8, brownsville, tx 78521, usa"
"Option Plus Hair Salon (Crystal)","1486 Ecorse Rd, Ypsilanti, MI",0,-83.579839,42.234781,"1486 ecorse rd, ypsilanti, mi 48198, usa"
"Options Plus Hair Salon","1486 Ecorse Rd, Ypsilanti, MI",0,-83.579839,42.234781,"1486 ecorse rd, ypsilanti, mi 48198, usa"
"Options Plus Hair Salon (Aliyah)","1486 Ecorse Rd, Ypslanti, MI",0,-83.579839,42.234781,"1486 ecorse rd, ypsilanti, mi 48198, usa"
"Options Plus Hair Salon (Jeanette)","1486 Ecorese Rd, Ypsilanti, MI",0,-83.579839,42.234781,"1486 ecorse rd, ypsilanti, mi 48198, usa"
"Oregon Medical Centers LLC","2515 Liberty ST NE, Salem, OR",0,-123.032092,44.9647853,"2515 liberty st ne, salem, or 97301, usa"
"Ornelas Chiropractic","702 W Irvington Rd Ste #100, Tucson, AZ",1,0,0,""
"Out Of The Grey Wellness","100 willow creek lane apt.104, woodstock, GA",4,-84.4880937,34.0836683,"willow creek ln, woodstock, ga 30188, usa"
"Overall Development & Nutrition","4011 W Argyle, Chicago, IL",0,-87.728632,41.9716448,"4011 w argyle st, chicago, il 60630, usa"
"OV Hair","1335 W. Lambert Ln unit 135, Tucson, AZ",0,-110.9942067,32.3947678,"1335 w lambert ln #135, oro valley, az 85737, usa"
"Pampered Pooch","18044 CR 349, St Joseph, MO",1,-94.7927462,39.8647793,"18044 county road #349, st joseph, mo 64505, usa"
"Paper Rock Scissors Salon","3035 WHITE BEAR AVE, MAPLEWOOD, MN",15,-93.0187736,45.0326941,"3035 white bear ave, maplewood, mn 55109, usa"
"Paradise Spa","825 Dulaney Valley Road, Towson, MD",1,-76.5990278,39.4042658,"825 dulaney valley rd, towson, md 21204, usa"
"Parlor of Art Tattoo","5902 N Belt Hwy, Saint Joseph, MO",0,-94.8157232,39.8204614,"5902 n belt hwy, st joseph, mo 64506, usa"
"Parlour","3225 West Cary Street, Richmond, VA",1,-77.4825014,37.5537945,"3225 w cary st, richmond, va 23221, usa"
"Party Castle","201 Station rd 210b, Quakertown, PA",0,-75.3302825,40.4315901,"201 station rd #210b, quakertown, pa 18951, usa"
"PartyParty Photobooths and Entertainement","2255 Thousand Oaks Dr., San Antonio, TX",2,-98.4522202,29.5892783,"2255 thousand oaks dr, san antonio, tx 78232, usa"
"Patchwood Products","14797 State St South, Hillman, MI",0,-83.900092,45.056004,"14797 state st, hillman, mi 49746, usa"
"Pat's Hair We Are","10120 Montwood Dr, El Paso, TX",5,-106.3478967,31.7700368,"10120 montwood dr, el paso, tx 79925, usa"
"Paulette Moore ~ Mary Kay Consultant","18507 Rollingside Drive, South Chesterfield, VA",0,-77.4327928,37.2649366,"18507 rollingside dr, colonial heights, va 23834, usa"
"pavijan23uwmer1p","300 california st, san francisco, CA",0,-122.4004457,37.7934926,"300 california st, san francisco, ca 94104, usa"
"pavioct28pay1","5656, san jose, AR",0,-121.8863286,37.3382082,"san jose, ca, usa"
"Paws Abound","2125 West Fairbanks Ave, Winter Park, FL",0,-81.378478,28.593373,"2125 w fairbanks ave, winter park, fl 32789, usa"
"Paws and Whiskers Barber Shop","803 E 100 N, Payson, UT",0,-111.7193343,40.0447235,"803 e 100 n, payson, ut 84651, usa"
"Paws of Purrfection","5619 Andrew Road, Mobile, AL",0,-88.1718047,30.5925777,"5619 andrew rd, mobile, al 36619, usa"
"P & C Nails","1702 W Newport Pike, Wilmington, DE",0,-75.6294321,39.7143013,"1702 w newport pike, wilmington, de 19804, usa"
"Pediluxe Nail & Spa","3830 Falmouth Rd, Marston Mill, MA",0,-70.4238047,41.6485567,"3830 falmouth rd, marstons mills, ma 02648, usa"
"PEEK A BOO BODY WAXING","8460 E Broadway Blvd Ste 100, Tucson, AZ",215,-110.8113802,32.2204641,"8460 e broadway blvd #100, tucson, az 85710, usa"
"Peppers Market and Sandwich Shop","2107 Grace Park Dr, Morrisville, NC",0,-78.8463268,35.8203649,"2107 grace park dr, morrisville, nc 27560, usa"
"PETIQUETTE PET GROOMING","405 Long Trail Rd, Black Hawk, CO",0,-105.4666027,39.8738241,"405 long trail rd, black hawk, co 80422, usa"
"Petit Auto & Performance LLC","501 Business Hwy 53, Minong, WI",0,-91.8281068,46.0996438,"501 business 53, minong, wi 54859, usa"
"Petrichor Float Center","36290 Hidden Springs Rd., wildomar, CA",0,-117.2449684,33.5943003,"36290 hidden springs rd, wildomar, ca 92595, usa"
"Pet Styles","2410 Dawes Rd. Suite B, Mobile, AL",3603,-88.2485901,30.6408291,"2410 dawes rd suite b, mobile, al 36695, usa"
"Phamtastic Mobile Detailing","1617 N Riverside ave, Medford, OR",28,-122.8791792,42.3424993,"1617 n riverside ave, medford, or 97501, usa"
"Phoenix DJ","2134 W. Marconi Avenue, Phoenix, AZ",0,-112.105131,33.6301652,"2134 w marconi ave, phoenix, az 85023, usa"
"Photography by Saprina","1122 E Main St, Morristown, TN",0,-83.2805985,36.2185377,"1122 e main st, morristown, tn 37814, usa"
"Pieces by Vaughn","2415 Halls Hill Pike, Murfreesboro, TN",466,-86.3438944,35.858367,"2415 halls hill pike, murfreesboro, tn 37130, usa"
"Piña Colada Express ™","1804 North Washington Boulevard, Llanfairpwllgwyngyllgogerychwyrndrobwllllantysiliogogogoch, CA",1,-4.197995,53.2246219,"llanfairpwllgwyngyll ll61, uk"
"Pink mink luxury","243 Creek Road, Keansburg, NJ",0,-74.1355304,40.4427876,"243 creek rd, keansburg, nj 07734, usa"
"Pinky's","910 S.E. Military Dr., San Antonio, TX",0,-98.484761,29.3541987,"910 se military dr, san antonio, tx 78214, usa"
"Pizzazz Salon","3932 N Ocean Blvd, Fort Lauderdale, FL",5,-80.0986778,26.1760059,"3932 n ocean blvd, fort lauderdale, fl 33308, usa"
"PJs College of Cosmetology","4010 South Emerson Ave, Indianapolis, IN",614,-86.0832945,39.7086517,"4010 s emerson ave, beech grove, in 46107, usa"
"Play’n Hooky Rentals","18500 San Carlos Blvd, Fort Myers Beach, FL",0,-81.9513292,26.4689087,"18500 san carlos blvd, fort myers beach, fl 33931, usa"
"Poki & Maki","500 West Madison, Chicago, IL",0,-87.6403882,41.8823062,"citigroup center, 500 w madison st, chicago, il 60661, usa"
"Posh Hair Studio","20326 NW 2nd Ave, Miami Gardens, FL",0,-80.2063179,25.9623898,"20326 nw 2nd ave, miami gardens, fl 33169, usa"
"Positively Whole Health","10047 Park Meadows Dr Unit C, Lone Tree, CO",0,-104.8721422,39.5525092,"10047 park meadows dr unit c, lone tree, co 80124, usa"
"POS Test","swapnil+testmarch@spoton.com, chicago, IL",2,-87.6404348,41.8820532,"500 w madison st, chicago, il 60661, usa"
"Poynt4-2010 - gave it to Michael K","300 California St, San Francisco, CA",1,-122.4004457,37.7934926,"300 california st, san francisco, ca 94104, usa"
"PPG Hair Clinic","5713 Raleigh Lagrange, Memphis, TN",0,-89.8740226,35.1831083,"5713 raleigh lagrange rd, memphis, tn 38134, usa"
"Preferred Limousine 8 Transportation","776 Terni Ln B, Santa Barbara, CA",0,-119.7482366,34.4278688,"776 terni ln, santa barbara, ca 93105, usa"
"Pretty Loud Inc","9000 Bristol Park Dr, Bartlett, TN",0,-89.7638733,35.2099012,"9000 bristol park dr, bartlett, tn 38133, usa"
"Pretty Please Hair","6909 N LOOP 1604 E. #1183 B, SAN ANTONIO, TX",0,0,0,""
"Priority Tax Service","4707 Greenleaf Ct, Modesto, CA",0,-121.0720716,37.703098,"4707 greenleaf ct, modesto, ca 95356, usa"
"Prod Appointments Merchant Poland","300 california st, san francisco, CA",3,-122.4004457,37.7934926,"300 california st, san francisco, ca 94104, usa"
"Prod Two Tablet Merchant","300 california st, san francisco, CA",0,-122.4004457,37.7934926,"300 california st, san francisco, ca 94104, usa"
"Production 222","300 california st, San Francisco, CA",1,-122.4004457,37.7934926,"300 california st, san francisco, ca 94104, usa"
"Professional Lice Center LLC","207 N 2nd st, Goodhue, MN",1,-92.6244711,44.400992,"207 n 2nd st, goodhue, mn 55027, usa"
"Pro Nails","3850 West Main Street Ste 603, Dothan, AL",5,-85.4513576,31.234758,"3850 w main st #603, dothan, al 36305, usa"
"Pro Nails & Spa","99 Commerce Way, Woburn, MA",0,-71.1356608,42.5174298,"99 commerce way, woburn, ma 01801, usa"
"Prosper Health Clinics","5228 Lovers Ln, Ste 110, Portage, MI",0,-85.5756395,42.2414616,"5228 lovers ln #110, portage, mi 49002, usa"
"Pro Wash","1423 Woodridge Drive, Danville, IL",3,-87.6466455,40.1496947,"1423 woodridge dr, danville, il 61832, usa"
"Public, Mail & More","2390 Fruitridge Road, Sacramento, CA",0,-121.4836393,38.5243519,"2390 fruitridge rd, sacramento, ca 95822, usa"
"Pura Vida Therapy","12480 W 62nd, Shawnee, KS",0,-94.7305672,39.0162997,"12480 w 62nd terrace, shawnee, ks 66216, usa"
"Pure Balance Float Spa","215 W Wade Hampton Blvd STE D, Greer, SC",1785,-82.2317586,34.9479691,"215 w wade hampton blvd ste d, greer, sc 29650, usa"
"(QA) Victor Prod","500 W Madison St, Chicago, IL",151,-87.6403882,41.8823062,"citigroup center, 500 w madison st, chicago, il 60661, usa"
"(QA) VM VT","500 W Madison St, Chicago, IL",11,-87.6403882,41.8823062,"citigroup center, 500 w madison st, chicago, il 60661, usa"
"Q Royalty Boutique","1403 W Roosevelt Rd STE B, Little Rock, AR",1,-92.2887037,34.7245703,"1403 w roosevelt rd ste b, little rock, ar 72206, usa"
"Radiant Brilliance","9811 W Charleston Blvd Ste 2-374, Las Vegas, NV",0,-115.3116101,36.1578494,"9811 w charleston blvd ste 2-374, las vegas, nv 89117, usa"
"Radiant Skin Aesthetics","1520 Longleaf Pine Pkwy Ste 111, Saint Johns, FL",69,-81.5542961,30.0811268,"1520 longleaf pine pkwy #111, st johns, fl 32259, usa"
"RADIANT WELLNESS CENTER","556 1st Ave N, Saint Petersburg, FL",0,-82.6413093,27.7717876,"556 1st ave n, st. petersburg, fl 33701, usa"
"Radici Hair Studio","512 Via de la Valle Ste 100, Solana Beach, CA",0,-117.2606765,32.9806954,"512 via de la valle #100, solana beach, ca 92075, usa"
"Raw Remedies LLC","203 E Colorado Ave B-1, Las Vegas, NV",1,-115.15231,36.1558326,"203 e colorado ave, las vegas, nv 89104, usa"
"Rays Autoservice","10302 Leopard St, Corpus Christi, TX",0,-97.5702185,27.83738,"10302 leopard st, corpus christi, tx 78410, usa"
"Razor Edge Beauty Company","3203 S M129, Sault Sainte Marie, MI",0,-84.3530951,46.4598817,"3203 m-129, sault ste. marie, mi 49783, usa"
"Reach Higher Athletics","389 Industrial Rd, Saint George, UT",0,-113.5610389,37.1146415,"389 industrial rd, st. george, ut 84770, usa"
"REDD NOSE INKIES","10550 HWY E, ROLLA, MO",0,-91.7919011,37.958973,"10550 state hwy e, rolla, mo 65401, usa"
"Rediscover Yourself LLC","933 Anderson Dr STE I, Green Bay, WI",446,-88.0707719,44.4851648,"933 anderson dr ste f, green bay, wi 54304, usa"
"R.E.D Space Salon","4028 Mayfield Rd, South Euclid, OH",1,-81.5350867,41.5204061,"4028 mayfield rd, south euclid, oh 44121, usa"
"Redtop barber Shop","128 S Dalton St, Slocomb, AL",259,-85.5939133,31.1069944,"128 s dalton st, slocomb, al 36375, usa"
"REFLECTIONS HAIR STUDIO","400 S Main St, Three Rivers, MI",2536,-85.6285717,41.938901,"400 s main st, three rivers, mi 49093, usa"
"Rejuvenique & Graceful Touch Salon","57805 Labauve Ave, Plaquemine, LA",1557,-91.2313806,30.2869479,"57805 labauve ave, plaquemine, la 70764, usa"
"Relaxe","808 montana, El Paso, TX",0,-106.486135,31.7672244,"808 montana ave, el paso, tx 79902, usa"
"Respond180 CPR, LLC","409 Worman Dr, Gahanna, OH",3,-82.8683318,40.0282498,"409 worman dr, columbus, oh 43230, usa"
"ReStart","8312 Office Park dr, Douglasville, GA",0,-84.732061,33.7537972,"8312 office park dr, douglasville, ga 30134, usa"
"Restoration Sports Massage","9250 Martin Rd, Roswell, GA",2,-84.312558,34.0058373,"9250 martin rd, roswell, ga 30076, usa"
"Reta Thiele","906 Morningside Ave, Sioux City, IA",0,-96.366539,42.4826717,"906 morningside ave, sioux city, ia 51106, usa"
"Revolutionary Fit","233 S Battleground Avenue, Kings Mtn, NC",17,-81.3442109,35.2381471,"233 s battleground ave, kings mountain, nc 28086, usa"
"Rhino Sheds LLC","159 Mount View Drive, Mount Airy, NC",0,-80.5947874,36.5310003,"159 mt view dr, mt airy, nc 27030, usa"
"Richard M. Skay, O.D.","1903 W San Marcos Blvd, Suite 130, San Marcos, CA",1,-117.2090699,33.1312202,"1903 w san marcos blvd #130, san marcos, ca 92078, usa"
"Ridgefield Organics & Specialty Market","109 Danbury Rd, Ridgefield, CT",0,-73.4942265,41.2932779,"109 danbury rd, ridgefield, ct 06877, usa"
"Rio Salon","7670 E Broadway Blvd #105, Tucson, AZ",0,0,0,""
"Rise Holistics","15003 FM 529 Rd Ste J, Houston, TX",0,-95.6343355,29.8787532,"15003 farm to market rd 529 ste j, houston, tx 77095, usa"
"Riverside Doghouse","28028 Business 23E, Paynesville, MN",0,-94.6966501,45.3851233,"28028 business 23 e, paynesville, mn 56362, usa"
"Robby Green","2610 Prancer St., New Orleans, LA",0,-90.0111303,29.9269583,"2610 prancer st, new orleans, la 70131, usa"
"Rob's Auto & Diesel Repair, Inc","312 Washington Street, Williamston, NC",0,-77.0567162,35.8488344,"312 washington st, williamston, nc 27892, usa"
"ROCKABETTYS HAIR PARLOR","561 SECOND STREET, YUBA CITY, CA",0,-121.6072004,39.1380011,"561 second st, yuba city, ca 95991, usa"
"RockIt Studio","473 W Wise Rd, Schaumburg, IL",3,-88.0929731,42.0042196,"473 w wise rd, schaumburg, il 60193, usa"
"Rock Solid Services","2590 Junction Hwy, Kerrville, TX",0,-99.2045571,30.0736203,"2590 junction hwy, kerrville, tx 78028, usa"
"Rosa Arriola - Aztec Empire Barbershop","231 North Main St, Spanish Fork, UT",1,-111.6550168,40.1129563,"231 n main st, spanish fork, ut 84660, usa"
"Rosewood Hair Studio","16564 Washington Street, Thornton, CO",6,-104.9736124,39.9967306,"16564 washington st, thornton, co 80023, usa"
"Rossy's Bookkeeping & Tax Services","2711 W Monte Cristo Rd Ste A, Edinburg, TX",7,-98.1866,26.3417958,"2711 w monte cristo rd ste a, edinburg, tx 78541, usa"
"Rougarou Collective","155 West Pine St, Ponchatoula, LA",4,-90.4422758,30.4383744,"155 w pine st, ponchatoula, la 70454, usa"
"Royal Cuts and Styles","10200 Foxtrail Rd south, Royal Palm Beach, FL",158,-80.2032101,26.7071508,"10200 fox trail rd s, royal palm beach, fl 33411, usa"
"Royce Micheal Incorporated","1209 W Farwell Avenue, Chicago, IL",0,-87.661788,42.006551,"1209 w farwell ave, chicago, il 60626, usa"
"Ruinard Inc","209 E Baseline Rd #203, Tempe, AZ",0,0,0,""
"sales","500 west mnadison, chicago, IL",0,-87.6403882,41.8823062,"citigroup center, 500 w madison st, chicago, il 60661, usa"
"Salon 618","618 Front Street, Hebron, IN",2003,-87.2008926,41.3277773,"618 front st, hebron, in 46341, usa"
"Salon Allison","10536 Kingstone Pike, Knoxville, TN",4,-84.1341552,35.8961894,"10536 kingston pike, knoxville, tn 37922, usa"
"Salon Grove Hair Studio","12373 Hwy 49 Ste 8, Gulfport, MS",0,-89.1028547,30.4664217,"12373 us 49 #8, gulfport, ms 39503, usa"
"Salon Honey and Sage","270 paseo reyes drive, Saint Augustine, FL",1,-81.3918837,30.015002,"270 paseo reyes dr, st. augustine, fl 32095, usa"
"Salon J LLC","329 Union St #101, Nashville, TN",10103,0,0,""
"Salon Le Reve","2221 N Beech Daly Road, Dearborn Heights, MI",5,-83.2928398,42.3257198,"2221 n beech daly rd, dearborn heights, mi 48127, usa"
"Salon Sapphire by Sabrina Marie Inc.","1571 Atwood Ave., Johnston, RI",23,-71.4990399,41.8284921,"1571 atwood ave, johnston, ri 02919, usa"
"Salons QA (Prod)","500 W Madison St., Chicago, IL",151,-87.6403882,41.8823062,"citigroup center, 500 w madison st, chicago, il 60661, usa"
"Salon Sunrise","1234 Rosedale St, Detroit, MI",2,-83.0748119,42.3941427,"1234 rosedale ct, detroit, mi 48211, usa"
"Saltopia At Melody's","2362 Wood Ave, Columbus, OH",1,-83.033017,40.0077934,"2362 wood ave, columbus, oh 43221, usa"
"Sanctified Styles By Nikki Byrd","946 Milledge Rd, Augusta, GA",0,-82.0136992,33.4740974,"946 milledge rd, augusta, ga 30904, usa"
"San Diego Myofascial Release","8407 La Mesa Blvd, La Mesa, CA",196,-117.016352,32.7659221,"8407 la mesa blvd, la mesa, ca 91942, usa"
"Savage Beauty Boutique","229 del Prado Blvd N #13, Cape Coral, FL",182,0,0,""
"Savant Hair","853 Spring St, Medford, OR",1,-122.8625231,42.3382834,"853 spring st, medford, or 97504, usa"
"SAVCO AUTO REPAIR & TIRE","16908 Hull Street Road, Moseley, VA",6,-77.7227328,37.3942757,"16908 hull street rd, moseley, va 23120, usa"
"SC Eagle Accounting Solutions","123 Northpoint Dr ste 178, houston, TX",0,-95.4070859,29.9387872,"123 northpoint dr #178, houston, tx 77060, usa"
"SCENE SPACE NAIL BAR","5910 W SUNSET BLVD, LOS ANGELES, CA",375,-118.3184556,34.097782,"5910 sunset blvd, los angeles, ca 90028, usa"
"Schindler Carpet and Floors","1430 S. Main, Lindale, TX",0,-95.4055108,32.5013374,"1430 s main st, lindale, tx 75771, usa"
"Scoop Dog","549 randolph, chicago, IL",2,-87.6416895,41.8842493,"549 w randolph st, chicago, il 60661, usa"
"Screamery Creamery","844 kathryn drive, concord, NC",0,-80.550807,35.3757379,"844 kathryn dr se, concord, nc 28025, usa"
"Settin Trendz Barber & Salon","7223 Northeast Dr, Austin, TX",0,-97.67966,30.3225692,"7223 northeast dr, austin, tx 78723, usa"
"SHADOW  ERA BEAUTY LLC","3758 30TH ST., SAN DIEGO, CA",0,-117.130363,32.746638,"3758 30th st, san diego, ca 92104, usa"
"Shanki Physiques Beauty and Body Spa","245 Newnan Crossing Blvd, Newnan, GA",0,-84.7540427,33.3789102,"newnan crossing blvd, newnan, ga 30265, usa"
"Shear Dimensions","2508 S Park Drive, Alexandria, IN",24,-85.6682497,40.2355601,"2508 s park ave, alexandria, in 46001, usa"
"shear experience","615 W Wisconsin St, Sparta, WI",0,-90.8191894,43.9389458,"615 w wisconsin st, sparta, wi 54656, usa"
"Shear Impressions","1717 philo rd #17b, urbana, IL",0,0,0,""
"Shear Obsession 2","142 Flemmingsburg Rd, Morehead, KY",7,-83.4394702,38.1785712,"142 flemingsburg rd, morehead, ky 40351, usa"
"Shear Wisdom","4340 E Kentucky Ave #411, Glendale, CO",0,0,0,""
"Sheebops Fireworks","3889 Interstate 75 Business Spur, Sault Ste. Marie, MI",1,-84.3695674,46.4651049,"3889 interstate 75 business spur, sault ste. marie, mi 49783, usa"
"Shelly Sanders","1677 E Niagara, Montrose, CO",26,-107.8628838,38.4674625,"1677 e niagara rd, montrose, co 81401, usa"
"Shine Window Tint","2675 S. Broadway, Denver, CO",0,-104.9877795,39.6681076,"2675 s broadway, denver, co 80210, usa"
"Silver Lining","475 W San Carlos St ste 10105, San Jose, CA",7,-121.8979193,37.3262951,"475 w san carlos st, san jose, ca 95110, usa"
"Simplii Inc","190 E Stacy Rd, Ste 306, Allen, TX",0,-96.6569111,33.1290731,"190 e stacy rd #306, allen, tx 75002, usa"
"Simply Chic","3241 Old Bay Springs Rd, Laurel, MS",1,-89.140676,31.7302763,"3241 old bay springs rd, laurel, ms 39440, usa"
"Simply Chic - Riley Creighton","3241 Old Bay Springs Rd, Laurel, MS",0,-89.140676,31.7302763,"3241 old bay springs rd, laurel, ms 39440, usa"
"Simply Spa","1200 Central Blvd Ste H3, Brownsville, TX",5,-97.511378,25.9227049,"1200 central blvd h3, brownsville, tx 78520, usa"
"Single Location Virtual Terminal","300 California St, San Francisco, CA",0,-122.4004457,37.7934926,"300 california st, san francisco, ca 94104, usa"
"Sixty Minutes To Freedom","909 W Washington Ave, Alpena, MI",0,-83.4527278,45.0619241,"909 w washington ave, alpena, mi 49707, usa"
"Six Zero One Salon","608 Wayne Street, Waynesboro, MS",1,-88.6456848,31.672852,"608 wayne st, waynesboro, ms 39367, usa"
"Skillz Barber Shop","6801 w 12th st suite aa, Little Rock, AR",0,-92.3522643,34.7413544,"6801 w 12th st suite a, little rock, ar 72204, usa"
"Skin Care By Jodie","100 N. Madison suite B, Greenwood, IN",0,-86.1108841,39.6164661,"100 n madison ave suite b, greenwood, in 46142, usa"
"Skin RN","7656 W Sahara Ave Ste 130, Las Vegas, NV",6,-115.2578742,36.1450906,"7656 w sahara ave #130, las vegas, nv 89117, usa"
"Sleep Well Anesthesia","8320 Chippenham Road, Richmond, VA",0,-77.5483506,37.5466143,"8320 chippenham rd, richmond, va 23235, usa"
"S & L Fashion Loft","9501 Arlington Expy Ste 405, Jacksonville, FL",0,-81.5510726,30.3234161,"9501 arlington expy #405, jacksonville, fl 32225, usa"
"SM Brown Financial","37642 Rose St, Palmdale, CA",0,-118.0455271,34.5667489,"37642 rose st, palmdale, ca 93552, usa"
"Smiley's Mobile Glass Shop Inc","7100 Forest Hill Avenue, Richmond, VA",0,-77.5271048,37.5378278,"7100 forest hill ave, richmond, va 23225, usa"
"Solace Health Professionals","1039 Boyds Creek Hwy, Seymour, TN",13,-83.7316598,35.8863056,"1039 boyds creek hwy, seymour, tn 37865, usa"
"Solar Panel FL CORP","1119 Isadore Dr, Orlando, FL",0,-81.2216546,28.5626894,"1119 isadore dr, orlando, fl 32825, usa"
"Sol The Barber","28895 Greenspot Rd Ste 101, Highland, CA",0,-117.1734856,34.1094918,"28895 greenspot rd #101, highland, ca 92346, usa"
"Somewhere on a Beach Tanning & Boutique LLC","515 Middleton Street, St. Joseph, MT",3,-94.8535674,39.7783336,"515 middleton st, st joseph, mo 64505, usa"
"Sophisticated Ink","5215 W. Clearwater Suite 106, Kennewick, WA",2146,-119.1930494,46.211844,"5215 w clearwater ave #106, kennewick, wa 99336, usa"
"Soulful Tastings","11885 Mesquite Miel Dr, El Paso, TX",0,-106.3680643,31.9537931,"11885 mesquite miel dr, el paso, tx 79934, usa"
"Soundwave Audio & Tint","6560 Montana, El Paso, TX",0,-106.4006974,31.7879944,"6560 montana ave, el paso, tx 79925, usa"
"Southern Beauty Spa and Salon","207 West Jackson, Harlingen, TX",9,-97.6969972,26.192459,"207 w jackson ave, harlingen, tx 78550, usa"
"Southern Charm Hair Salon","7190 Rabion Dr., Sneads, FL",32,-84.996251,30.772,"7190 rabion dr, sneads, fl 32460, usa"
"Southern Utah Insurance","1224 S. River Road Suite A203, St. George, UT",1,-113.557627,37.0876794,"1224 s river rd a203, st. george, ut 84790, usa"
"Southwest Rootz Salon","5005 4th St NW Ste 204, Albuquerque, NM",14,-106.6427159,35.1331491,"5005 4th st nw #204, albuquerque, nm 87107, usa"
"Spa Halcyon","225 Lark St, Albany, NY",0,-73.7649081,42.6554043,"225 lark st, albany, ny 12210, usa"
"Spalon Elite","150 North Birch St Ste 190, Cambridge, MN",5,-93.2262405,45.5733932,"150 birch st n #190, cambridge, mn 55008, usa"
"Spa Pro Nails","12852 Research Blvd., Austin, TX",0,-97.7722971,30.4338378,"12852 research blvd, austin, tx 78750, usa"
"Spa Qsthetics Wellness Service and Natural Prodcuts","7164 Manchester AVE, Maplewood, MO",3,-90.312245,38.6149022,"7164 manchester ave, maplewood, mo 63143, usa"
"SPEEDWAY TIRES & BATTERIES","898 NORTH E. STREET, SAN BERNARDINO, CA",0,-117.2946377,34.1155308,"898 n e st, san bernardino, ca 92410, usa"
"SpotOn Demo 2 (TicaSkater Appointments)","500 W Madison St, Chicago, IL",87,-87.6403882,41.8823062,"citigroup center, 500 w madison st, chicago, il 60661, usa"
"SpotOn Demo Chiropractor","449 west madison, chicago, IL",2,-87.6394784,41.8819451,"449 w madison st, chicago, il 60606, usa"
"Spoton Grand Junction","Grand Junction, Grand Junction, CO",3,-108.5506486,39.0638705,"grand junction, co, usa"
"SpotOn - Kansas City Metro Area","603 North 8th Street, Saint Joseph, MO",18,-94.8503419,39.7712574,"603 n 8th st, st joseph, mo 64501, usa"
"SpotOn Salons","100 SpotOn Avenue, Chicago, IL",57,-87.6404348,41.8820532,"500 w madison st, chicago, il 60661, usa"
"SpotOn Salons Demo","300 California St, San Francisco, CA",1,-122.4004457,37.7934926,"300 california st, san francisco, ca 94104, usa"
"SpotOn Terminal Demo","500 west madison, chicago, IL",24,-87.6403882,41.8823062,"citigroup center, 500 w madison st, chicago, il 60661, usa"
"Spots by Dollar Poynt - Production","300 California St, San Francisco, CA",10,-122.4004457,37.7934926,"300 california st, san francisco, ca 94104, usa"
"Spots by Dollar Yogita","449 west madison, chicago, IL",37,-87.6394784,41.8819451,"449 w madison st, chicago, il 60606, usa"
"SRM Paintwerks LLC","970 N. Bridge Street, Elkin, NC",0,-80.8480715,36.2612587,"970 n bridge st, elkin, nc 28621, usa"
"Starbrite Window Cleaning","1469 92nd Avenue NE, Blaine, MN",0,-93.2329008,45.1372018,"1469 92nd ave ne, blaine, mn 55449, usa"
"Steele Hair Gallery","3325 Plymouth St Ste 3, Jacksonville, FL",1,-81.7112135,30.3099335,"3325 plymouth st #3, jacksonville, fl 32205, usa"
"Stellus Braids","17118 W Little York Rd Suite # 107B, Houston, TX",0,0,0,""
"Step N Out","2990 N Alma School Rd, Chandler, AZ",0,-111.8614434,33.3485815,"2990 n alma school rd, chandler, az 85224, usa"
"Steve O. Hair Designs","101 E. Hubbard, Lindale, TX",0,-95.4094001,32.5154328,"101 e hubbard st, lindale, tx 75771, usa"
"Steve's Store","111 Main Street, Sioux City, IA",0,-96.4194874,42.4963752,"111 main st, sioux city, ia 51103, usa"
"Stilisimo Parque Lindavista","Colector 13 No. 280, Magdalena de las Salinas, Gustavo A. Madero, Ciudad de Mexico, DIF",0,-99.1316503,19.4844591,"avenida colector 15, magdalena de las salinas, gustavo a. madero, 07760 ciudad de méxico, cdmx, mexico"
"Still Waters Massage & Bodywork Studio","225 A Alamo Plaza Studio 119, Alamo, CA",1,-122.0344727,37.8519667,"225a alamo plaza #119, alamo, ca 94507, usa"
"STM Landscape Supply","5471 Hwy 43 Unit C, Satsuma, AL",0,-88.059625,30.848689,"5471-c, us-43, satsuma, al 36572, usa"
"Storey Automotive","1507 Hayes St SW, Hartselle, AL",0,-86.9333606,34.4305397,"1507 hayes st sw, hartselle, al 35640, usa"
"Storms Welding & Mfg","513 W lake St, Cologne St, MN",0,-93.7877069,44.768368,"513 lake st w, cologne, mn 55322, usa"
"Strengthen Yourself Natural Care","190 N Main St, Heber City, UT",0,-111.4129166,40.5100996,"190 n main st, heber city, ut 84032, usa"
"Studio 104","1062 Johnson Ferry Road, Marietta, GA",2,-84.4139017,33.9752987,"1062 johnson ferry rd, marietta, ga 30068, usa"
"STUDIO 107 HAIR","107 Market Ct, Stevensville, MD",0,-76.3152823,38.9806118,"107 market ct, stevensville, md 21666, usa"
"Studio 17","17 W Grand Ave, Fox Lake, IL",0,-88.1855922,42.3966035,"17 w grand ave, fox lake, il 60020, usa"
"Studio 36 LLC","620 Azalea Rd, Mobile, AL",1617,-88.1462558,30.6546894,"620 azalea rd, mobile, al 36609, usa"
"Studio Chic","2201 SW College Road, Ocala, FL",0,-82.1615686,29.1724675,"2201 sw college rd, ocala, fl 34471, usa"
"Studio Elie","20700 North Main Street. Suite110, Cornelius, NC",0,-80.8575412,35.4901729,"20700 n main st #110, cornelius, nc 28031, usa"
"Studio Glam Hair Extensions Salon","541 W Wetmore Rd, Tucson, AZ",0,-110.9811902,32.2860726,"541 w wetmore rd, tucson, az 85705, usa"
"Studios By Reese Salon","11815 Mara Lynn Ste 5, Little Rock, AR",257,-92.404411,34.7574527,"11815 mara lynn rd #5, little rock, ar 72211, usa"
"Style And Sass","51 Cordova St, Saint Augustine, FL",0,-81.31438,29.8944094,"51 cordova st, st. augustine, fl 32084, usa"
"Style Escape","207 Cascade St., Osceola, WI",0,-92.7057042,45.3210436,"207 n cascade st, osceola, wi 54020, usa"
"Stylistix Beauty Salon","2820 michigan avenue, Kissimmee, FL",0,-81.3917916,28.3302018,"2820 michigan ave, kissimmee, fl 34744, usa"
"Styliztik Nailz","806 Old Coords Drive SW, Albuquerque, NM",0,-106.6992688,35.0713391,"806 old coors dr sw, albuquerque, nm 87121, usa"
"Success Barber Salon","3951 s king drive, chicago, IL",20,-87.6164973,41.8222425,"3951 s king dr, chicago, il 60653, usa"
"Sud Busters","1505 hunter st, Lake charles, LA",0,-93.2173758,30.2265949,"lake charles, la, usa"
"Sudflo Softwash","797 co rd 118, florence, AL",0,-87.7271883,34.9242044,"co rd 118, alabama 35633, usa"
"Sugarworks Wax Bar & Esthetics","517 E Tennessee St, Florence, AL",0,-87.6699623,34.8028897,"517 e tennessee st, florence, al 35630, usa"
"Sun Kissed Spray Tanning","7550 W Yale Ave B201, Denver, CO",36,-105.0798079,39.6672128,"7550 w yale ave b201, denver, co 80227, usa"
"Sunshine Managed Associations Network","8388 S. Pamiami Trail, Sarasota, FL",0,-82.4956749,27.2296018,"8388 s tamiami trail, sarasota, fl 34238, usa"
"Sun Spa","1057 S Wadsworth blvd, Lakewood, CO",0,-105.0821827,39.6978703,"1057 s wadsworth blvd, lakewood, co 80226, usa"
"Sun Spa Tanning","1057 S Wadsworth Blvd Ste 90, Lakewood, CO",2653,-105.0821827,39.6978703,"1057 s wadsworth blvd #90, lakewood, co 80226, usa"
"Superfly Tattoos","1055 4th Ave, San Diego, CA",0,-117.1609407,32.7164059,"1055 fourth ave, san diego, ca 92101, usa"
"Superior Auto Detail Center","1416 Tramway Rd, Sanford, NC",0,-79.1696236,35.4476574,"1416 tramway rd, sanford, nc 27332, usa"
"Superior Pool","4050 Florence Blvd, Florence, AL",0,-87.5850043,34.8442664,"4050 florence blvd, florence, al 35634, usa"
"Superior Styling Salon","4320 I-75 Business Spur, Sault Sainte Marie, MI",0,-84.3118631,46.4887549,"4320 interstate 75 business spur, sault ste. marie, mi 49783, usa"
"swapnilllllll","500, chicago, IL",1,-87.6703863,41.8735436,"1725 w harrison st ste 500, chicago, il 60612, usa"
"Swapnil Test","1000 W Madison St., Chicago, IL",38,-87.6522527,41.8820011,"1000 w madison st, chicago, il 60607, usa"
"swapnil visit (temp2)","500 west madison, chicago, IL",6,-87.6403882,41.8823062,"citigroup center, 500 w madison st, chicago, il 60661, usa"
"sw da","500 west madisonaaaa, chicagaao, IL",6,-87.6403882,41.8823062,"citigroup center, 500 w madison st, chicago, il 60661, usa"
"Tablet Test","500 west madison, chicago, IL",0,-87.6403882,41.8823062,"citigroup center, 500 w madison st, chicago, il 60661, usa"
"Tammy's Organic Salon","43 Boyd Ln, Ivel, KY",0,-82.6602644,37.5763085,"43 boyd ln, ivel, ky 41642, usa"
"Tango","114 S. School St., Ukiah, CA",0,-123.20889,39.1494271,"114 s school st, ukiah, ca 95482, usa"
"Tapestry Massage & Yoga and Wildwood Apothecary","307 West Main Street, Radford, VA",5,-80.5754208,37.134166,"307 w main st, radford, va 24141, usa"
"Tappan Zee Barber Shop LLC","580 RT-303, Blauvelt, NY",0,-73.9500345,41.0625525,"580 ny-303, blauvelt, ny 10913, usa"
"Teeth Whitening Monterey","188 Webster St, Monterey, CA",0,-121.8940681,36.5960984,"188 webster st, monterey, ca 93940, usa"
"Tekkeez Tech Bar","5314 N Clark Street, Chicago, IL",0,-87.6685705,41.9785078,"5314 n clark st, chicago, il 60640, usa"
"Tekkeez Tech Repair","6204 N Broadway Street, Chicago, IL",0,-87.6606898,41.9947837,"6204 n broadway, chicago, il 60660, usa"
"Teresa & Associates Day Spa and Salon","502 E college St, Florence, AL",1,-87.6698064,34.8014566,"502 e college st, florence, al 35630, usa"
"Teresa & Associates Day Spa & Salon","502 E College St, Florence, AL",24,-87.6698064,34.8014566,"502 e college st, florence, al 35630, usa"
"Test- 82217","929 West Madison Street Suite 3130, Springfield, IL",125,-93.3029558,37.2007666,"929 w madison st #3130, springfield, mo 65806, usa"
"Test Account","The Street 111, The City 111, UT",11,-111.8905659,40.7668597,"111 s main st, salt lake city, ut 84111, usa"
"Test Account-Cordial Expressions LLC","500 West Madison, Chicago, IL",0,-87.6403882,41.8823062,"citigroup center, 500 w madison st, chicago, il 60661, usa"
"Test Appointments with no catalog","300 California St, San Francisco, CA",3,-122.4004457,37.7934926,"300 california st, san francisco, ca 94104, usa"
"TEST-bhavin pa","500 W. Madison St, Chicago, IL",0,-87.6403882,41.8823062,"citigroup center, 500 w madison st, chicago, il 60661, usa"
"Test Marketing Poynt v6","300 california st, san francisco, CA",5,-122.4004457,37.7934926,"300 california st, san francisco, ca 94104, usa"
"Test Poynt Kitkat","300 California St, San Francisco, CA",17,-122.4004457,37.7934926,"300 california st, san francisco, ca 94104, usa"
"Tete a Hair Salon","7100 US HWY 93 S, Lakeside, MT",1,-114.226582,48.0234684,"7100 us-93, lakeside, mt 59922, usa"
"Thairapy by Thereasa","505 Mildred, Galesburg, MI",0,-85.4346156,42.2843263,"505 mildred, galesburg, mi 49053, usa"
"tHAIRapy Salon","443 N Water St, Black River Falls, WI",0,-90.8438203,44.3022368,"443 n water st, black river falls, wi 54615, usa"
"The Artsy Place","710 E 6TH ST, Muscle Shoals, AL",0,-87.6620523,34.7297558,"710 e 6th st, muscle shoals, al 35661, usa"
"The Backyard Salon and Tanning","26 E 3rd St, Litchfield, MN",1,-94.5277423,45.1284878,"26 e 3rd st, litchfield, mn 55355, usa"
"The Beauty Gallery LLC","114 Main St, Collins, MS",883,-89.5549764,31.6457146,"114 main st, collins, ms 39428, usa"
"The Canterbury Events Center","197 E. 500 So., Bountiful, UT",0,-111.8766541,40.8846698,"197 500 s, bountiful, ut 84010, usa"
"The Center For Holistic Wellness","1535 Old Hot Springs Rd Ste 60, Carson City, NV",4,-119.7506117,39.1925691,"1535 old hot springs rd #60, carson city, nv 89706, usa"
"The Chosen One Salon","260 East Military Drive, North Little Rock, AR",0,-92.290936,34.8063167,"260 e military dr, north little rock, ar 72118, usa"
"The Cutting Lounge","473 N Federal Hwy, Boca Raton, FL",7,-80.0868682,26.3542558,"473 n federal hwy, boca raton, fl 33432, usa"
"The Dexter Institute LLC","511 Main Street, Groveport, OH",0,-82.886332,39.8516217,"511 main st, groveport, oh 43125, usa"
"The Esthetics Bar","110 E. Second Street, Clayton, NC",0,-78.4599009,35.65248,"110 e 2nd st, clayton, nc 27520, usa"
"The Franklin Day Spa","1053 Watkins Creek, Franklin, TN",0,-86.7738041,35.9060263,"1053 watkins creek dr, franklin, tn 37067, usa"
"The Golden Touch","301 Hooffs Run Drive, Alexandria, VA",11,-77.063358,38.7998666,"301 hooffs run dr, alexandria, va 22314, usa"
"The Golf Vault 2","2909 Falling Leaf Ste H, Columbia, MO",480,-92.2949777,38.914407,"2909 falling leaf ln ste h, columbia, mo 65201, usa"
"The Goodtime Barbershop","104 E 6th St., Medford, OR",1122,-122.8735953,42.3269475,"104 e 6th st, medford, or 97501, usa"
"The Grand Marshall Barber","1160 S State St Ste 140, Orem, UT",58,-111.6860103,40.2760262,"1160 s state st #140, orem, ut 84097, usa"
"The Grooming Divas","6929 Richmond Rd, Williamsburg, VA",0,-76.764912,37.354208,"6929 richmond rd, williamsburg, va 23188, usa"
"The Hair Connection","117 1st St W, Conover, NC",0,-81.2591144,35.7186666,"1st st w, conover, nc 28613, usa"
"The Hair Experience","306 E Markland Ave, Kokomo, IN",0,-86.128007,40.4769982,"306 e markland ave, kokomo, in 46901, usa"
"The Hair Shop Etc","5435 S Calle Santa Cruz #125, Tucson, AZ",23,0,0,""
"The Hair Shoppe","105 W Traer, Greene, IA",1,-92.8035363,42.8951727,"105 w traer st, greene, ia 50636, usa"
"The Healers Touch","279 E Main St, Morehead, KY",0,-83.4327966,38.1851685,"279 e main st, morehead, ky 40351, usa"
"The Inn Spot Community Acupuncture","3505 CAMINO DEL RIO STE.338, SAN DIEGO, CA",0,-117.1182828,32.7771654,"3505 camino del rio n #338, san diego, ca 92108, usa"
"The Jeep Stuff","4120 W AJ Hwy, Morristown, TN",3,-83.3550239,36.1947292,"4120 w andrew johnson hwy, morristown, tn 37814, usa"
"The Lash Lounge","8209 Ocean Gtwy Unit 5, Easton, MD",0,-76.0597692,38.774475,"8209 ocean gateway #5, easton, md 21601, usa"
"The Lash Studio","400 west midland avenue suite 250 b, woodland park, CO",1,-105.0572722,38.9943491,"400 w midland ave suite 250 b, woodland park, co 80863, usa"
"The Lice Lounge Hair Care Center","113 N 2nd Ave W, Duluth, MN",0,-92.1022652,46.7858127,"113 n 2nd ave w, duluth, mn 55802, usa"
"The Makeup Studio","6046 West Maple Rd, West Bloomfield, MI",18,-83.3774971,42.5430448,"6046 w maple rd, west bloomfield township, mi 48322, usa"
"The Movers of El Paso","10921 Pellicano Dr. Suite 109, El Paso, TX",0,-106.3304673,31.7514978,"10921 pellicano dr #109, el paso, tx 79935, usa"
"The Painted Pallet","119 N Main St, Sylvania, GA",62,-81.6365134,32.7511067,"119 n main st, sylvania, ga 30467, usa"
"The Refinery LLC","400 W Superior St, Kokomo, IN",1,-86.1348674,40.4857051,"400 w superior st, kokomo, in 46901, usa"
"The Retreat Day Spa and Boutique","502 E. Tuscaloosa St, Florence, AL",719,-87.6720792,34.8049493,"502 e tuscaloosa st, florence, al 35630, usa"
"The Royal S'paw","2100 E Fairview Ave Ste 6, Meridian, ID",14,-116.3682923,43.6199073,"2100 e fairview ave #6, meridian, id 83642, usa"
"The Salty Paw Grooming Salon","1734 B Savannah Highway, Charleston, SC",0,-80.0184494,32.7880076,"1734 savannah hwy, charleston, sc 29407, usa"
"The V Spa By Be Ronette","450 Blanding Blvd, Orangepark, FL",29,-81.7478932,30.1607892,"450 blanding blvd, orange park, fl 32073, usa"
"The Zen Zone","1282 Highway 175 Suite A, Hubertus, WI",0,-88.1844307,43.2352612,"1282 wi-175 suite a, hubertus, wi 53033, usa"
"TicaSkater Appointments Demo","550 W Randolph St, Chicago, IL",0,-87.6417232,41.8846819,"550 w randolph st, chicago, il 60661, usa"
"TIcaSkater Poynt Demo 2","500 west madison, chicago, IL",11,-87.6403882,41.8823062,"citigroup center, 500 w madison st, chicago, il 60661, usa"
"Time II Shine Haircuts","2220 1/2 SW 74th Street, Oklahoma City, OK",11,-97.5130063,35.3928109,"1 sw 74th st #2220, oklahoma city, ok 73139, usa"
"Tim Stites","6950 Flowering Almond Drive, Colorado Springs, CO",2,-104.6975261,38.9269465,"6950 flowering almond dr, colorado springs, co 80923, usa"
"Toad-ally Fresh Air","7550 W Yale Ave #B-201, Denver, CO",0,0,0,""
"Today Clips","8546 S Hulen St, Fort Worth, TX",1,-97.3891012,32.618454,"8546 s hulen st, fort worth, tx 76123, usa"
"Tomas Pino D.D.S","415 S. Federal Hwy STE # 2, Lake Worth, FL",0,0,0,""
"Toni and Guy","8405 Park Meadows Center, Lone Tree, CO",9,-104.8777911,39.5632726,"8405 park meadows center dr, lone tree, co 80124, usa"
"Top Rank Barbershop","1900 W University, edinburgh, TX",0,-98.1825595,26.3038161,"1900 w university dr, edinburg, tx 78539, usa"
"Tortilleria La Paz","200 e 18th st, cheyenne, WY",0,-104.8141474,41.1355166,"200 e 18th st, cheyenne, wy 82001, usa"
"Totally Kids LLC","2082 M-32 West, Alpena, MI",2,-83.4928161,45.061525,"2082 m-32, alpena, mi 49707, usa"
"Touch of Health Wellness Center","10417 Excelsior Blvd Ste 3, Hopkins, MN",1790,-93.4112524,44.9206031,"10417 excelsior blvd #3, hopkins, mn 55343, usa"
"Town & Country Hand Car Wash","2747 E Chapman Ave, Orange, CA",0,-117.8237617,33.7881363,"2747 e chapman ave, orange, ca 92869, usa"
"Traditions Salon","10233 Chapman Hwy, Seymour, TN",1800,-83.789428,35.882867,"10233 chapman hwy, seymour, tn 37865, usa"
"Trendsetter Barbershop","159 W Walnut St, Jesup, GA",210,-81.8827106,31.6067457,"159 w walnut st, jesup, ga 31545, usa"
"Trenz Salon and Day Spa","1516 N Main st, Harrison, AR",0,-93.118625,36.2472668,"1516 n main st, harrison, ar 72601, usa"
"Trenz Too","130 Industrial Park Rd, Harrison, AR",0,-93.1261005,36.2503897,"130 industrial park rd, harrison, ar 72601, usa"
"Trotter Brothers Flooring","3130 Battleground Avenue, Greensboro, NC",0,-79.83987,36.118395,"3130 battleground ave, greensboro, nc 27408, usa"
"Troy Michael A Strands Barr","1548 The Greens Way, Jacksonville Beach, FL",0,-81.4025771,30.2529072,"1548 the greens way, jacksonville beach, fl 32250, usa"
"True Balance Center for Breath and Body Work, Inc.","773 Lower Fayetteville Rd, Newnan, GA",932,-84.7634419,33.3729081,"773 lower fayetteville rd, newnan, ga 30263, usa"
"True Balance Massage and Wellness","5510 NE Antioch Rd, Kansas City, MO",43,-94.5497767,39.1939499,"5510 ne antioch rd, kansas city, mo 64119, usa"
"Tyler Salene Therapy","9200 Manmelle blvd, north little rock, AR",71,-92.3629198,34.8145127,"9200 maumelle blvd, north little rock, ar 72113, usa"
"UBU Stylez","12310 Chenal Pkwy, Little Rock, AR",0,-92.4118097,34.7519034,"12310 chenal pkwy, little rock, ar 72211, usa"
"Unleashed Dog Grooming","8810 College St., Olive Branch, MS",4531,-89.8322315,34.9555448,"8810 college st, olive branch, ms 38654, usa"
"Unveiled Beauty and Barber","3206 Ironbound Rd Ste A, Williamsburg, VA",355,-76.767159,37.2521651,"3206 ironbound rd ste a, williamsburg, va 23188, usa"
"U.P. Auto Detailing","1285 E. Easterday Ave, Sault Sainte, MI",91,-84.3376257,46.4917457,"1285 e easterday ave, sault ste. marie, mi 49783, usa"
"Urban Cell Repair","715 S. 900 W. Suite #D, Salt Lake City, UT",0,0,0,""
"Urban Sports Therapy","4338 Mississippi St #16, San Diego, CA",0,0,0,""
"Usha's Eyebrow Threading & Spa","3408 S. University Ave., Little Rock, AR",90,-92.343043,34.7208225,"3408 s university ave, little rock, ar 72204, usa"
"Usherwood + Co.","1408 S 3rd Street, Las Vegas, NV",0,-115.1515129,36.1543257,"1408 s 3rd st, las vegas, nv 89104, usa"
"uw subbloc tsys","418 Summit Rd, Walnut Creek, CA",1,-122.0433457,37.9026603,"418 summit rd, walnut creek, ca 94598, usa"
"uw website sep 11","300 cali st, san fran, CA",0,-122.4004457,37.7934926,"300 california st, san francisco, ca 94104, usa"
"Valerie Narciso","406 A Alverado, monterey, CA",0,-121.8947861,36.5998072,"406 alvarado st, monterey, ca 93940, usa"
"Valley Creek Spa","3550 n university ave suite 175, Provo, UT",0,-111.6574088,40.2808844,"3550 n university ave #175, provo, ut 84604, usa"
"Vamachara","585 Bicycle Path, Port Jefferson Station, NY",84,-73.0365129,40.9119293,"585 n bicycle path, port jefferson station, ny 11776, usa"
"Vanity Hair Co","210 Market St, Portsmouth, OH",2452,-83.0026,38.732,"210 market st, portsmouth, oh 45662, usa"
"Vanity Room","2190 Suite D, Muskegon, MI",0,-86.2604077,43.2955812,"2190 whitehall rd ste d, muskegon, mi 49445, usa"
"VEVA Beauty","6304 woodside ct suite 110, columbia, MD",43,-76.853808,39.1958246,"6304 woodside ct #110, columbia, md 21046, usa"
"Via Bella","6603 Spring Stuebner Road # 313, Spring, TX",2,0,0,""
"Vibe: A Hair Company","2730 US 1 South, Saint Augustine, FL",0,-81.3219124,29.8450717,"2730 us-1, st. augustine, fl 32086, usa"
"Vibe Inc","236 W garden St Suite 1, Pensacola, FL",3967,-87.2198143,30.4127297,"236 w garden st #1, pensacola, fl 32502, usa"
"Vibes Nails and Lotion Bar","325 E Main St, Johnson City, TN",193,-82.3499148,36.3176846,"325 e main st, johnson city, tn 37601, usa"
"Vicki Henke","2300 East 30th Building B 103, Farmington, NM",11,-108.1741402,36.7570701,"2300 e 30th st #103, farmington, nm 87401, usa"
"Victorious Registration Solution","741 N LA Cadena Ste B, Colton, CA",0,-117.323336,34.0727637,"741 n la cadena dr ste b, colton, ca 92324, usa"
"Victor's Healing Body","325 Lander Ave, Turlock, CA",0,-120.849168,37.4897685,"325 lander ave, turlock, ca 95380, usa"
"Vida Youssephzadeh","8988 X Sheridan Rd, Tulsa, OK",0,-95.9053433,36.0331952,"8988 s sheridan rd, tulsa, ok 74133, usa"
"Villa Del Sol","423 Grand Ave, South San Francisco, CA",47,-122.4135658,37.6557037,"423 grand ave, south san francisco, ca 94080, usa"
"Village Hair Salon","560 Weathersby Rd Suite 90, Hattiesburg, MS",1,-89.3725132,31.3243119,"560 weathersby rd #90, hattiesburg, ms 39402, usa"
"Vincent & Company","1626 Orrigton, Evanston, IL",0,-87.681306,42.047697,"1626 orrington ave, evanston, il 60201, usa"
"Vinny's Italian Kitchen","5337 Gulf Dr, Holmes Beach, FL",0,-82.7153066,27.5060082,"5337 gulf dr, holmes beach, fl 34217, usa"
"VIP Dominican Beauty Salon","4250 Main St #113, Harrisburg, NC",40,0,0,""
"VIP Nail Studio LLC","33 Boston Turnpike, Shrewsbury, MA",0,-71.7535597,42.2746304,"33 boston turnpike, shrewsbury, ma 01545, usa"
"Virtual Experience","285 W Center Street, Provo, UT",2,-111.6635339,40.233377,"285 w center st, provo, ut 84601, usa"
"Vista Pet Groomery","2210 E Vista Way, Vista, CA",0,-117.2264392,33.2338312,"2210 e vista way, vista, ca 92084, usa"
"Vitality Wellness Spa","1039 Boyds Creek Hwy Ste 2, Seymour, TN",3,-83.7316598,35.8863056,"1039 boyds creek hwy #2, seymour, tn 37865, usa"
"Vitruvian Fitness Concepts LLC","1560 Lenox Ave Suite 305, Miami Beach, FL",0,-80.1401905,25.788696,"1560 lenox ave apt 305, miami beach, fl 33139, usa"
"Viva Diva Nails","8605 Nottingham Dr, Ypsilanti, MI",1,-83.592502,42.261446,"8605 nottingham dr, superior charter twp, mi 48198, usa"
"VN Auto Repair","43 Tiburon St, San Rafael, CA",0,-122.5067572,37.9628022,"43 tiburon st, san rafael, ca 94901, usa"
"Walks With Julia","511 Kenwood Ave Apt A, Delmar, NY",2,-73.844557,42.623688,"511 kenwood ave apt a, delmar, ny 12054, usa"
"Wally's Auto Service","161 Farnum Pike, Smithfield, RI",0,-71.518134,41.893161,"161 farnum pike, smithfield, ri 02917, usa"
"Watson Barber Shop","2309 N Hammond Ave, Bethany, OK",0,-97.6241942,35.4923532,"2309 n hammond ave, bethany, ok 73008, usa"
"Waves Massage","1515 N University Dr 214, Coral Springs, FL",21,-80.2524683,26.2500187,"1515 n university dr #214, coral springs, fl 33071, usa"
"Wax Spa","1590 NE 162nd st Suite 200, North Miami Beach, FL",13,-80.1686298,25.9244882,"1590 ne 162nd st #200, north miami beach, fl 33162, usa"
"Wayndedale Pancake Cafe","5700 Bluffton Road, Fort Wayne, IN",0,-85.166217,41.031841,"5700 bluffton rd, fort wayne, in 46809, usa"
"Wendys Nail & Spa","10916 Atlantic Blvd Ste 11, Jacksonville, FL",3578,-81.5190546,30.3239775,"10916 atlantic blvd #11, jacksonville, fl 32225, usa"
"Westcott Law Group PLLC","9525 Bissonnet St Suite 270, Houston, TX",1,-95.5449125,29.6752729,"9525 bissonnet st #270, houston, tx 77036, usa"
"What A Tease Hair Studio LLC","3600 Elida Road suite F, Lima, OH",1113,-84.1706799,40.7737037,"3600 elida rd suite f, lima, oh 45807, usa"
"White Oak Hair & Nail Studio","1485 Hwy 34 East, newman, GA",25,-84.7303199,33.3986626,"1485 ga-34, newnan, ga 30265, usa"
"White’s Garage","450 N. Main St, Shrewsbury, PA",0,-76.6788317,39.7906378,"450 n main st, shrewsbury, pa 17361, usa"
"Wildflower Salon & Spa","2630 W Main St, Bozeman, MT",396,-111.0731251,45.6720366,"2630 w main st, bozeman, mt 59718, usa"
"Wildside Nails","1700 N 10th St Ste M, McAllen, TX",1,-98.2263392,26.2192738,"1700 n 10th st ste m, mcallen, tx 78501, usa"
"Wilkinson Rhodes","116 Parklane Dr, San Antonio, TX",0,-98.4908707,29.475302,"116 parklane dr, san antonio, tx 78212, usa"
"Williams Creek Cabins","2118 Williams Creek- Music Rd, Rush, KY",23,-82.8319441,38.2891774,"williams creek cabins llc, 2118 williams creek rd, rush, ky 41168, usa"
"Willis Day Spa","676 S Pear Orchard Rd, Ridgeland, MS",194,-90.123068,32.4072448,"676 s pear orchard rd, ridgeland, ms 39157, usa"
"Willoway Spa and Wellness","407 Michigan St, Petoskoy, MI",0,-84.9549963,45.3731219,"407 michigan st, petoskey, mi 49770, usa"
"Willow Wellness Salon & Spa","233 Country Club Drive, Concord, NC",13,-80.6039645,35.4457051,"233 country club dr ne, concord, nc 28025, usa"
"Wolf's Den Billiards","4820 Hollins Road, Roanoke, VA",0,-79.9334726,37.3213035,"4820 hollins rd, hollins, va 24019, usa"
"Wrench Junky Auto Services","2435 S. Stone Mountain Blvd, Lithonia, GA",2,-84.1175373,33.7362461,"2435 s stone mountain lithonia rd, lithonia, ga 30058, usa"
"Wren & Ivy Salon Co","170 S South St, Gastonia, NC",0,-81.1835991,35.2627472,"170 s south st, gastonia, nc 28052, usa"
"Xin Sui Reflexology","6518 RT 22, Delmont, PA",0,-79.585367,40.4017169,"6518 us-22, new alexandria, pa 15670, usa"
"Xtreme Core Fitness llc","125 N KENAZO AVE STE I,J, HORIZON CITY, TX",2,-106.1891559,31.6842329,"125 n kenazo ave ste i,j, horizon city, tx 79928, usa"
"xyz corp -CODY- Live Demo","300 California ST, San Francisco, CA",0,-122.4004457,37.7934926,"300 california st, san francisco, ca 94104, usa"
"Yanna Yim Salon","727 Pantiac Ave, Cranston, RI",0,-71.440878,41.76633,"727 pontiac ave, cranston, ri 02910, usa"
"Yarbrough Party Hall","550 n yarbrough ste 205, El Paso, TX",0,-106.3444935,31.7365372,"550 n yarbrough dr #205, el paso, tx 79915, usa"
"Yaya’s Nail Spa","4753 NW 167th St, Miami Gardens, FL",0,-80.2780282,25.9257615,"4753 nw 167th st, opa-locka, fl 33055, usa"
"Your Accident Center","141 E 5600 S Ste 204, Murray, UT",0,-111.8865047,40.6495993,"141 e 5600 s #204, murray, ut 84107, usa"
"Your Salon","302 water st, Eau Claire, WI",4,-91.5059246,44.8023737,"302 water st, eau claire, wi 54703, usa"
"Your Salon","302 Water St, Eau Claire, WI",29,-91.5059246,44.8023737,"302 water st, eau claire, wi 54703, usa"
"You've Got Maids","93 S West End Blvd, Quakertown, PA",0,-75.3560432,40.4406778,"93 s west end blvd, quakertown, pa 18951, usa"
"YV Beauty Creations Inc","2910 Jog Road, Greenacres, FL",0,-80.1449128,26.6337734,"2910 jog rd, greenacres, fl 33463, usa"
"Yvonne's Hair Salon","3037 Lockport Olcott rd, Newfane, NY",6,-78.6987902,43.2676166,"3037 lockport olcott rd, newfane, ny 14108, usa"
"Zhenni Spa","2223 NW Broad St Suite A, Murfreesboro, TN",4,-86.4323721,35.883644,"2223 nw broad st suite a, murfreesboro, tn 37129, usa"
"Zion Motors Inc","950 S Bluff Street, St George, UT",1,-113.5863815,37.0911476,"950 s bluff st, st. george, ut 84770, usa"
